[
  {
    "name": "2902",
    "city": "Абланица",
    "zipCode": "2932",
    "address": "стоянка на мобилната станция - Абланица, ул. Елин Пелин 30",
    "worktime1": "14:00-14:30",
    "worktime2": "14:00-14:30"
  },
  {
    "name": "7538 Айдемир",
    "city": "Айдемир",
    "zipCode": "7538",
    "address": "кв. Деленките, бул. Тутракан №7",
    "worktime1": "09:00 - 18:00",
    "worktime2": "09:00 - 13:00"
  },
  {
    "name": "8501 Айтос Автогара",
    "city": "Айтос",
    "zipCode": "8500",
    "address": "ул. Георги Кондолов №7",
    "worktime1": "09:00 - 18:00",
    "worktime2": "09:00 - 13:00"
  },
  {
    "name": "8502 Айтос Орела",
    "city": "Айтос",
    "zipCode": "8500",
    "address": "ул. Васил Левски №44",
    "worktime1": "09:00 - 18:00",
    "worktime2": "09:00 - 13:00"
  },
  {
    "name": "9023 Аксаково",
    "city": "Аксаково",
    
    "address": "ж.к. Надежда, ул. Капитан Петко Войвода №1",
    "worktime1": "09:00 - 18:00",
    "worktime2": "09:00 - 13:00"
  },
  {
    "name": "6750 Ардино",
    "city": "Ардино",
    "zipCode": "6750",
    "address": "кв. Бостанджиите, ул. Бели брези №21",
    "worktime1": "09:00 - 18:00",
    "worktime2": "09:00 - 13:00"
  },
  {
    "name": "4234 Асеновград",
    "city": "Асеновград",
    "zipCode": "4230",
    "address": "ул. Цар Иван Асен ІІ №125",
    "worktime1": "09:00 - 18:00",
    "worktime2": "09:00 - 13:00"
  },
  {
    "name": "4231 Асеновград АБВ",
    "city": "Асеновград",
    "zipCode": "4230",
    "address": "ул. Гоце Делчев №19",
    "worktime1": "09:00 - 18:00",
    "worktime2": "09:00 - 13:00"
  },
  {
    "name": "4232 Асеновград Запад",
    "city": "Асеновград",
    "zipCode": "4230",
    "address": "кв. Запад, бул. България №68",
    "worktime1": "09:00 - 18:00",
    "worktime2": "09:00 - 13:00"
  },
  {
    "name": "4233 Асеновград Христо Ботев",
    "city": "Асеновград",
    "zipCode": "4230",
    "address": "ул. Христо Ботев №3",
    "worktime1": "09:00 - 18:00",
    "worktime2": "09:00 - 13:00"
  },
  {
    "name": "8217 Ахелой",
    "city": "Ахелой",
    "zipCode": "8217",
    "address": "Ахелой, ул. Слънчев бряг №1",
    "worktime1": "09:00 - 11:30; 12:30 - 15:30; 16:00 - 18:00",
    "worktime2": "09:30 - 11:30; 12:30 - 13:00"
  },
  {
    "name": "9600 Балчик",
    "city": "Балчик",
    "zipCode": "9600",
    "address": "ул. Черно Море №53",
    "worktime1": "09:00 - 18:00",
    "worktime2": "09:00 - 13:00"
  },
  {
    "name": "9603 Балчик Левски",
    "city": "Балчик",
    "zipCode": "9600",
    "address": "ул. Христо Ботев №37",
    "worktime1": "09:00 - 18:00",
    "worktime2": "09:00 - 13:00"
  },
  {
    "name": "1321 Банкя",
    "city": "Банкя",
    "zipCode": "1320",
    "address": "ул. Стефан Стамболов №20",
    "worktime1": "09:00 - 18:00",
    "worktime2": "09:00 - 13:00"
  },
  {
    "name": "2770 Банско",
    "city": "Банско",
    "zipCode": "2770",
    "address": "ул. Васил Кънчев №8",
    "worktime1": "09:00 - 18:00",
    "worktime2": "09:00 - 13:00"
  },
  {
    "name": "2771 Банско Горски Техникум",
    "city": "Банско",
    "zipCode": "2770",
    "address": "ул. Охрид №8",
    "worktime1": "09:00 - 18:00",
    "worktime2": "09:00 - 13:00"
  },
  {
    "name": "4361 Баня",
    "city": "Баня",
    "zipCode": "4360",
    "address": "ул. Липите №22",
    "worktime1": "09:00 - 18:00",
    "worktime2": "09:00 - 13:00"
  },
  {
    "name": "5931 Белене",
    "city": "Белене",
    "zipCode": "5930",
    "address": "ул. Братя Миладинови №22",
    "worktime1": "09:00 - 18:00",
    "worktime2": "09:00 - 13:00"
  },
  {
    "name": "4470 Белово",
    "city": "Белово",
    "zipCode": "4470",
    "address": "кв. Белове, бул. Освобождение №80",
    "worktime1": "09:00 - 18:00",
    "worktime2": "09:00 - 13:00"
  },
  {
    "name": "3900 Белоградчик",
    "city": "Белоградчик",
    "zipCode": "3900",
    "address": "бул. Съединение №9",
    "worktime1": "08:00 - 11:30; 15:00 - 18:00",
    "worktime2": "09:00 - 13:00"
  },
  {
    "name": "9150 Белослав",
    "city": "Белослав",
    "zipCode": "9178",
    "address": "ул. Трети март №24",
    "worktime1": "09:00 - 18:00",
    "worktime2": "09:00 - 13:00"
  },
  {
    "name": "3500 Берковица",
    "city": "Берковица",
    "zipCode": "3500",
    "address": "ул. Берковска река №11",
    "worktime1": "09:00 - 18:00",
    "worktime2": "09:00 - 13:00"
  },
  {
    "name": "2707 Благоевград Главна улица",
    "city": "Благоевград",
    "zipCode": "2700",
    "address": "ул. Пере Тошев №7",
    "worktime1": "09:00 - 18:00",
    "worktime2": "09:00 - 13:00"
  },
  {
    "name": "2700 Благоевград Еконт Експрес",
    "city": "Благоевград",
    "zipCode": "2700",
    "address": "ул. Покровнишко шосе №20",
    "worktime1": "08:00 - 19:00",
    "worktime2": "08:00 - 13:00"
  },
  {
    "name": "2706 Благоевград Еленово",
    "city": "Благоевград",
    "zipCode": "2700",
    "address": "ж.к. Еленово, супермаркет Валан",
    "worktime1": "09:00 - 18:00",
    "worktime2": "09:00 - 13:00"
  },
  {
    "name": "2704 Благоевград Запад",
    "city": "Благоевград",
    "zipCode": "2700",
    "address": "ж.к. Запад, ул. Свети Свети Кирил и Методий №31",
    "worktime1": "09:00 - 18:00",
    "worktime2": "09:00 - 13:00"
  },
  {
    "name": "2705 Благоевград Кончето",
    "city": "Благоевград",
    "zipCode": "2700",
    "address": "ул. Иван Михайлов №26",
    "worktime1": "09:00 - 18:00",
    "worktime2": "09:00 - 13:00"
  },
  {
    "name": "2702 Благоевград Пазара",
    "city": "Благоевград",
    "zipCode": "2700",
    "address": "ул. Даме Груев №5",
    "worktime1": "09:00 - 18:00",
    "worktime2": "09:00 - 13:00"
  },
  {
    "name": "2708 Благоевград Струмско",
    "city": "Благоевград",
    "zipCode": "2700",
    "address": "кв. Струмско, ул. Яне Сандански №2Г",
    "worktime1": "09:00 - 18:00",
    "worktime2": "09:00 - 13:00"
  },
  {
    "name": "2715",
    "city": "Бобошево",
    "zipCode": "2660",
    "address": "стоянка на мобилната станция - Бобошево, център",
    "worktime1": "15:30-16:00",
    "worktime2": "12:00-12:30"
  },
  {
    "name": "бул. Европа 85",
    "city": "Божурище",
    "zipCode": "2227",
    "address": "0",
    "worktime1": "12:00 - 13:00",
    "worktime2": "09:00 - 18:00"
  },
  {
    "name": "2140 Ботевград",
    "city": "Ботевград",
    "zipCode": "2140",
    "address": "ул. Свобода №2",
    "worktime1": "09:00 - 18:00",
    "worktime2": "09:00 - 13:00"
  },
  {
    "name": "2141 Ботевград Еконт Изток",
    "city": "Ботевград",
    "zipCode": "2140",
    "address": "ж.к. Васил Левски, ул. Илия Стоянов №3",
    "worktime1": "09:00 - 18:00",
    "worktime2": "09:00 - 13:00"
  },
  {
    "name": "3790 Брегово",
    "city": "Брегово",
    "zipCode": "3790",
    "address": "Брегово, ул. Ленин №21",
    "worktime1": "09:30 - 11:30; 13:30 - 15:00; 15:30 - 17:00",
    "worktime2": "09:30 - 10:30; 11:30 - 12:00"
  },
  {
    "name": "8021 Бургас",
    "city": "Бургас",
    "zipCode": "8000",
    "address": "кв. Победа, ул. Индустриална №54",
    "worktime1": "09:00 - 18:00",
    "worktime2": "09:00 - 13:00"
  },
  {
    "name": "8009 Бургас Братя Миладинови",
    "city": "Бургас",
    "zipCode": "8000",
    "address": "ж.к. Братя Миладинови, ул. Марица №135",
    "worktime1": "09:00 - 18:00",
    "worktime2": "09:00 - 13:00"
  },
  {
    "name": "8018 Бургас Въстаническа",
    "city": "Бургас",
    "zipCode": "8000",
    "address": "ж.к. Меден рудник, ул. Въстаническа, бл.529",
    "worktime1": "09:00 - 18:00",
    "worktime2": "09:00 - 13:00"
  },
  {
    "name": "8006 Бургас Дебелянов-Славейков",
    "city": "Бургас",
    "zipCode": "8000",
    "address": "ж.к. Славейков, бл.130, офис 1",
    "worktime1": "09:00 - 18:00",
    "worktime2": "09:00 - 13:00"
  },
  {
    "name": "8017 Бургас Долно Езерово",
    "city": "Бургас",
    "zipCode": "8000",
    "address": "кв. Долно Езерово, ул. Захари Зограф №75",
    "worktime1": "09:00 - 18:00",
    "worktime2": "09:00 - 13:00"
  },
  {
    "name": "8013 Бургас Зорница",
    "city": "Бургас",
    "zipCode": "8000",
    "address": "ж.к. Зорница, пазара пред блок 8",
    "worktime1": "09:00 - 18:00",
    "worktime2": "09:00 - 13:00"
  },
  {
    "name": "8012 Бургас Изгрев",
    "city": "Бургас",
    "zipCode": "8000",
    "address": "ж.к. Изгрев, бл.186 ет.партер",
    "worktime1": "09:00 - 18:00",
    "worktime2": "09:00 - 13:00"
  },
  {
    "name": "8004 Бургас Лазур",
    "city": "Бургас",
    "zipCode": "8000",
    "address": "ж.к. Лазур, бл.100, офис 1",
    "worktime1": "09:00 - 18:00",
    "worktime2": "09:00 - 13:00"
  },
  {
    "name": "8007 Бургас Меден рудник",
    "city": "Бургас",
    "zipCode": "8000",
    "address": "кв. Зона А, бл.383",
    "worktime1": "09:00 - 18:00",
    "worktime2": "09:00 - 13:00"
  },
  {
    "name": "8003 Бургас Патриарх Евтимий",
    "city": "Бургас",
    "zipCode": "8000",
    "address": "ж.к. Възраждане, ул. Патриарх Евтимий №72",
    "worktime1": "09:00 - 18:00",
    "worktime2": "09:00 - 13:00"
  },
  {
    "name": "8011 Бургас ПЗ Север",
    "city": "Бургас",
    "zipCode": "8000",
    "address": "кв. 1, ул. Янко Комитов, БЦ Мадика /срещу КАТ/",
    "worktime1": "09:00 - 18:00",
    "worktime2": "09:00 - 13:00"
  },
  {
    "name": "8020 Бургас Роял",
    "city": "Бургас",
    "zipCode": "8000",
    "address": "кв. 1, ул. Оборище №57",
    "worktime1": "09:00 - 18:00",
    "worktime2": "09:00 - 13:00"
  },
  {
    "name": "8016 Бургас Сарафово",
    "city": "Бургас",
    "zipCode": "8000",
    "address": "кв. Сарафово, ул. Ради Николов №30",
    "worktime1": "09:00 - 18:00",
    "worktime2": "09:00 - 13:00"
  },
  {
    "name": "8002 Бургас Славейков",
    "city": "Бургас",
    "zipCode": "8000",
    "address": "ж.к. Славейков, бл.55 вх.Ж",
    "worktime1": "09:00 - 18:00",
    "worktime2": "09:00 - 13:00"
  },
  {
    "name": "8019 Бургас Транспортна",
    "city": "Бургас",
    "zipCode": "8000",
    "address": "ж.к. Изгрев, бл.91",
    "worktime1": "09:00 - 18:00",
    "worktime2": "09:00 - 13:00"
  },
  {
    "name": "8014 Бургас Фердинандова",
    "city": "Бургас",
    "zipCode": "8000",
    "address": "ж.к. Възраждане, ул. Фердинандова №29А",
    "worktime1": "09:00 - 18:00",
    "worktime2": "09:00 - 13:00"
  },
  {
    "name": "3201 Бяла Слатина",
    "city": "Бяла Слатина",
    "zipCode": "3200",
    "address": "ул. Васил Левски №14",
    "worktime1": "09:00 - 18:00",
    "worktime2": "09:00 - 13:00"
  },
  {
    "name": "\"7100 Бяла, Русенско\"",
    "city": "Бяла",
    "zipCode": "7100",
    "address": "ул. Иван Вазов №15",
    "worktime1": "09:00 - 18:00",
    "worktime2": "09:00 - 13:00"
  },
  {
    "name": "9000 Варна",
    "city": "Варна",
    "zipCode": "9000",
    "address": "кв. Западна Промишлена Зона, Завод Метал",
    "worktime1": "09:00 - 18:00",
    "worktime2": "09:00 - 13:00"
  },
  {
    "name": "9032 Варна Аспарухово",
    "city": "Варна",
    "zipCode": "9000",
    "address": "кв. Аспарухово, ул. Димчо Дебелянов №14",
    "worktime1": "09:00 - 18:00",
    "worktime2": "09:00 - 13:00"
  },
  {
    "name": "9004 Варна Бенковски",
    "city": "Варна",
    "zipCode": "9000",
    "address": "Център, ул. Велико Христов №12",
    "worktime1": "09:00 - 17:45",
    "worktime2": "09:00 - 13:00"
  },
  {
    "name": "9013 Варна Битоля",
    "city": "Варна",
    "zipCode": "9000",
    "address": "Район Приморски, ул. Джеймс Баучер №3, срещу блок 3",
    "worktime1": "09:00 - 17:45",
    "worktime2": "09:00 - 13:00"
  },
  {
    "name": "9021 Варна Виница",
    "city": "Варна",
    "zipCode": "9000",
    "address": "ж.к. Виница, ул. Цар Борис III №25",
    "worktime1": "09:00 - 18:00",
    "worktime2": "09:00 - 13:00"
  },
  {
    "name": "9018 Варна Владиславово",
    "city": "Варна",
    "zipCode": "9000",
    "address": "кв. Владислав Варненчик, ул. Иван Павлов №13",
    "worktime1": "09:00 - 18:00",
    "worktime2": "09:00 - 13:00"
  },
  {
    "name": "9020 Варна Възраждане",
    "city": "Варна",
    "zipCode": "9000",
    "address": "кв. Възраждане, ул. Поп Димитър №12, срещу бл.66",
    "worktime1": "09:00 - 18:00",
    "worktime2": "09:00 - 13:00"
  },
  {
    "name": "9006 Варна ЖП Гара",
    "city": "Варна",
    "zipCode": "9000",
    "address": "Център, ул. Цариброд №41, (вход от към ул. Шабла)",
    "worktime1": "09:00 - 18:00",
    "worktime2": "09:00 - 13:00"
  },
  {
    "name": "9027 Варна Кайсиева градина",
    "city": "Варна",
    "zipCode": "9000",
    "address": "ж.к. Кайсиева градина, ул. Петър Дертлиев №36, (до Метро)",
    "worktime1": "09:00 - 18:00",
    "worktime2": "09:00 - 13:00"
  },
  {
    "name": "9015 Варна Колхозен пазар",
    "city": "Варна",
    "zipCode": "9000",
    "address": "Център, ул. Стара планина №41-43",
    "worktime1": "09:00 - 18:00",
    "worktime2": "09:00 - 13:00"
  },
  {
    "name": "9005 Варна Левски",
    "city": "Варна",
    "zipCode": "9000",
    "address": "кв. Васил Левски, ул. Васил Ставрев №2",
    "worktime1": "09:00 - 17:45",
    "worktime2": "09:00 - 13:00"
  },
  {
    "name": "9028 Варна Майка Тереза",
    "city": "Варна",
    "zipCode": "9000",
    "address": "кв. Възраждане, ул. Майка Тереза №6, до бл.7",
    "worktime1": "09:00 - 18:00",
    "worktime2": "09:00 - 13:00"
  },
  {
    "name": "9011 Варна Младост",
    "city": "Варна",
    "zipCode": "9000",
    "address": "кв. Младост, бул. Ян Хунияди №37, пред входа на Музея",
    "worktime1": "09:00 - 18:00",
    "worktime2": "09:00 - 13:00"
  },
  {
    "name": "9033 Варна Пазар Младост",
    "city": "Варна",
    "zipCode": "9000",
    "address": "кв. Младост, срещу бл.145",
    "worktime1": "09:00 - 18:00",
    "worktime2": "09:00 - 13:00"
  },
  {
    "name": "9003 Варна Патриарха",
    "city": "Варна",
    "zipCode": "9000",
    "address": "Район Одесос, ул. Калофер №2",
    "worktime1": "09:00 - 18:00",
    "worktime2": "09:00 - 13:00"
  },
  {
    "name": "9031 Варна Победа",
    "city": "Варна",
    "zipCode": "9000",
    "address": "кв. Победа, ул. Тодор Пенев №11",
    "worktime1": "09:00 - 18:30",
    "worktime2": "09:00 - 13:00"
  },
  {
    "name": "9017 Варна Спартак",
    "city": "Варна",
    "zipCode": "9000",
    "address": "Район Одесос, ул. Неофит Рилски №22",
    "worktime1": "09:00 - 18:00",
    "worktime2": "09:00 - 13:00"
  },
  {
    "name": "9007 Варна стадион Черно море",
    "city": "Варна",
    "zipCode": "9000",
    "address": "кв. Васил Левски, ул. Доктор Анастасия Железкова №5A",
    "worktime1": "09:00 - 18:00",
    "worktime2": "09:00 - 13:00"
  },
  {
    "name": "9009 Варна Технически университет",
    "city": "Варна",
    "zipCode": "9000",
    "address": "кв. Васил Левски, ул. Народен юмрук №3, срещу 10-и пощенски клон, зад банка ДСК",
    "worktime1": "09:00 - 18:00",
    "worktime2": "09:00 - 13:00"
  },
  {
    "name": "9019 Варна Трошево",
    "city": "Варна",
    "zipCode": "9000",
    "address": "кв. Трошево, ул. Радост, бл.6, до училище Добри Чинтулов",
    "worktime1": "09:00 - 18:00",
    "worktime2": "09:00 - 13:00"
  },
  {
    "name": "9029 Варна Христо Ботев",
    "city": "Варна",
    "zipCode": "9000",
    "address": "Център, бул. Христо Ботев №18",
    "worktime1": "09:00 - 18:00",
    "worktime2": "09:00 - 13:00"
  },
  {
    "name": "9026 Варна Цветен квартал",
    "city": "Варна",
    "zipCode": "9000",
    "address": "Район Приморски, ул. Бели лилии №20, м-н 3",
    "worktime1": "09:00 - 18:00",
    "worktime2": "09:00 - 13:00"
  },
  {
    "name": "9012 Варна Чайка",
    "city": "Варна",
    "zipCode": "9000",
    "address": "кв. Чайка, бл.68, партер (на гърба на Пощенски клон 5)",
    "worktime1": "09:00 - 17:45",
    "worktime2": "09:00 - 13:00"
  },
  {
    "name": "9008 Варна Чаталджа",
    "city": "Варна",
    "zipCode": "9000",
    "address": "Район Приморски, ул. Сава Радулов №18, зад пазара за цветя.",
    "worktime1": "09:00 - 18:00",
    "worktime2": "09:00 - 13:00"
  },
  {
    "name": "9001 Варна Червен площад",
    "city": "Варна",
    "zipCode": "9000",
    "address": "Район Приморски, ул. Цар Асен №50",
    "worktime1": "09:00 - 17:45",
    "worktime2": "09:00 - 13:00"
  },
  {
    "name": "9853 Велики Преслав",
    "city": "Велики Преслав",
    "zipCode": "9850",
    "address": "ул. Борис Спиров №28",
    "worktime1": "09:00 - 18:00",
    "worktime2": "09:00 - 13:00"
  },
  {
    "name": "5010 Велико Търново",
    "city": "Велико Търново",
    "zipCode": "5000",
    "address": "кв. Кольо Фичето, ул. Полтава №3Ж",
    "worktime1": "09:00 - 18:30",
    "worktime2": "09:00 - 13:00"
  },
  {
    "name": "5007 Велико Търново Бузлуджа",
    "city": "Велико Търново",
    "zipCode": "5000",
    "address": "ж.к. Бузлуджа, ул. Никола Габровски №63А",
    "worktime1": "09:00 - 18:00",
    "worktime2": "09:00 - 13:00"
  },
  {
    "name": "5008 Велико Търново България",
    "city": "Велико Търново",
    "zipCode": "5000",
    "address": "бул. България №21",
    "worktime1": "09:00 - 18:30",
    "worktime2": "09:00 - 13:00"
  },
  {
    "name": "5009 Велико Търново Картала",
    "city": "Велико Търново",
    "zipCode": "5000",
    "address": "кв. Картала, ул. Стоян Михайловски №9, магазин 2а",
    "worktime1": "09:00 - 18:00",
    "worktime2": "09:00 - 13:00"
  },
  {
    "name": "5004 Велико Търново Мизия",
    "city": "Велико Търново",
    "zipCode": "5000",
    "address": "ул. Мизия №28",
    "worktime1": "09:00 - 18:00",
    "worktime2": "09:00 - 13:00"
  },
  {
    "name": "5006 Велико Търново пл. Славейков",
    "city": "Велико Търново",
    "zipCode": "5000",
    "address": "кв. Варуша, пл. Пенчо Р.Славейков №5, до Халите",
    "worktime1": "08:00 - 19:00",
    "worktime2": "09:00 - 13:00"
  },
  {
    "name": "5011 Велико Търново Христо Ботев",
    "city": "Велико Търново",
    "zipCode": "5000",
    "address": "ул. Христо Ботев №28",
    "worktime1": "09:00 - 18:00",
    "worktime2": "09:00 - 13:00"
  },
  {
    "name": "4600 Велинград",
    "city": "Велинград",
    "zipCode": "4600",
    "address": "Велинград, ул. Пазарска №2",
    "worktime1": "09:00 - 18:00",
    "worktime2": "09:00 - 13:00"
  },
  {
    "name": "4603 Велинград Рубин",
    "city": "Велинград",
    "zipCode": "4600",
    "address": "Велинград, ул. Св. Св. Кирил и Методи №5",
    "worktime1": "09:00 - 18:00",
    "worktime2": "09:00 - 13:00"
  },
  {
    "name": "7080 Ветово",
    "city": "Ветово",
    "zipCode": "7080",
    "address": "Ветово, ул. Васил Левски №1",
    "worktime1": "09:00 - 11:30; 13:30 - 15:00; 15:30 - 19:00",
    "worktime2": "09:00 - 11:30; 12:00 - 13:00"
  },
  {
    "name": "3700 Видин Авангард Калето",
    "city": "Видин",
    "zipCode": "3700",
    "address": "Видин, ул. Княз Борис I №10",
    "worktime1": "09:00 - 18:00",
    "worktime2": "09:00 - 13:00"
  },
  {
    "name": "3701 Видин Крум Бъчваров",
    "city": "Видин",
    "zipCode": "3700",
    "address": "Видин, ул. Райко Жензифов, до бл. 27",
    "worktime1": "09:00 - 18:00",
    "worktime2": "09:00 - 13:00"
  },
  {
    "name": "3703 Видин Площад Ташкюприя",
    "city": "Видин",
    "zipCode": "3700",
    "address": "Видин, ул. Екзарх Йосиф I №45",
    "worktime1": "09:00 - 18:00",
    "worktime2": "09:00 - 13:00"
  },
  {
    "name": "3704 Видин Ровно",
    "city": "Видин",
    "zipCode": "3700",
    "address": "Видин, ул. Цар Александър II №71",
    "worktime1": "09:00 - 18:00",
    "worktime2": "09:00 - 13:00"
  },
  {
    "name": "3000 Враца",
    "city": "Враца",
    "zipCode": "3000",
    "address": "ж.к. Металург, ул. Никола Вапцаров №18",
    "worktime1": "09:00 - 18:00",
    "worktime2": "09:00 - 13:00"
  },
  {
    "name": "30018 Враца - Драгомир Антов",
    "city": "Враца",
    "zipCode": "3000",
    "address": "ж.к. Металург, ул. Никола Вапцаров №18",
    "worktime1": "09:00 - 18:00",
    "worktime2": "09:00 - 13:00"
  },
  {
    "name": "3001 Враца Автогара",
    "city": "Враца",
    "zipCode": "3000",
    "address": "Враца, ул. Васил Кънчов №76",
    "worktime1": "09:00 - 18:00",
    "worktime2": "09:00 - 13:00"
  },
  {
    "name": "3004 Враца Дъбника",
    "city": "Враца",
    "zipCode": "3000",
    "address": "ж.к. Дъбника, бл.32",
    "worktime1": "09:00 - 18:00",
    "worktime2": "09:00 - 13:00"
  },
  {
    "name": "3006 Враца Левски",
    "city": "Враца",
    "zipCode": "3000",
    "address": "кв. 72, ул. Генерал Леонов №77",
    "worktime1": "09:00 - 18:00",
    "worktime2": "09:00 - 13:00"
  },
  {
    "name": "3003 Враца пл.Руски",
    "city": "Враца",
    "zipCode": "3000",
    "address": "Враца, ул. Христо Ботев №77",
    "worktime1": "09:00 - 18:00",
    "worktime2": "09:00 - 13:00"
  },
  {
    "name": "2902",
    "city": "Вълкосел",
    "zipCode": "2930",
    "address": "стоянка на мобилната станция - Вълкосел, център",
    "worktime1": "13:00 - 13:15",
    "worktime2": "13:00 - 13:15"
  },
  {
    "name": "3650 Вълчедръм",
    "city": "Вълчедръм",
    "zipCode": "3650",
    "address": "Вълчедръм, ул. България №15",
    "worktime1": "09:00 - 18:00",
    "worktime2": "09:00 - 13:00"
  },
  {
    "name": "9283 Варна",
    "city": "Вълчи Дол",
    "zipCode": "9280",
    "address": "стоянка на мобилната станция - гр. Вълчи Дол, пред входа на автогарата",
    "worktime1": "12:15 - 13:10",
    "worktime2": "09:40 - 09:50"
  },
  {
    "name": "9874",
    "city": "Върбица",
    "zipCode": "9870",
    "address": "стоянка на мобилната станция - гр. Върбица, ул. Септемврийско въстание 52",
    "worktime1": "13:30 - 14:00",
    "worktime2": "12:20 - 12:30"
  },
  {
    "name": "3542 Вършец",
    "city": "Вършец",
    "zipCode": "3540",
    "address": "ул. Хан Омуртаг №8",
    "worktime1": "09:00 - 18:00",
    "worktime2": "09:00 - 13:00"
  },
  {
    "name": "5300 Габрово",
    "city": "Габрово",
    "zipCode": "5300",
    "address": "ул. Доктор Заменхоф №3, Под Автогарата",
    "worktime1": "09:00 - 18:00",
    "worktime2": "09:00 - 13:00"
  },
  {
    "name": "5304 Габрово ЕСА",
    "city": "Габрово",
    "zipCode": "5300",
    "address": "кв. Младост, ул. Златна Нива №9",
    "worktime1": "09:00 - 18:00",
    "worktime2": "09:00 - 13:00"
  },
  {
    "name": "5301 Габрово Мадара",
    "city": "Габрово",
    "zipCode": "5300",
    "address": "ул. Мадара №9",
    "worktime1": "09:00 - 18:00",
    "worktime2": "09:00 - 13:00"
  },
  {
    "name": "5303 Габрово Театъра",
    "city": "Габрово",
    "zipCode": "5300",
    "address": "ул. Св. Св. Кирил и Методи №10, срещу Куклен театър",
    "worktime1": "09:00 - 18:00",
    "worktime2": "09:00 - 13:00"
  },
  {
    "name": "5305 Габрово Шиваров мост",
    "city": "Габрово",
    "zipCode": "5300",
    "address": "ул. Йосиф Соколски №4",
    "worktime1": "09:00 - 18:00",
    "worktime2": "09:00 - 13:00"
  },
  {
    "name": "9309",
    "city": "Генерал Тошево",
    "zipCode": "9500",
    "address": "стоянка на мобилната станция - гр. Генерал Тошево, бул. Трети Март 25",
    "worktime1": "09:05 - 10:00; 12:00 - 14:00",
    "worktime2": "09:05 - 10:00; 12:00 - 13:00"
  },
  {
    "name": "7631 Главиница",
    "city": "Главиница",
    "zipCode": "7630",
    "address": "ул. Розова долина №1",
    "worktime1": "09:00 - 18:00",
    "worktime2": "09:00 - 13:00"
  },
  {
    "name": "5103 Горна Оряховица",
    "city": "Горна Оряховица",
    "zipCode": "5100",
    "address": "ул. Вичо Грънчаров №9А",
    "worktime1": "09:00 - 18:00",
    "worktime2": "09:00 - 13:00"
  },
  {
    "name": "5105 Горна Оряховица Гарата",
    "city": "Горна Оряховица",
    "zipCode": "5100",
    "address": "ул. Цар Освободител №95",
    "worktime1": "09:00 - 18:00",
    "worktime2": "09:00 - 13:00"
  },
  {
    "name": "5104 Горна Оряховица Пролет",
    "city": "Горна Оряховица",
    "zipCode": "5100",
    "address": "Пролет, ул. Д-р Петър Берон №4",
    "worktime1": "08:00 - 19:00",
    "worktime2": "09:00 - 13:00"
  },
  {
    "name": "5102 Горна Оряховица Шейново",
    "city": "Горна Оряховица",
    "zipCode": "5100",
    "address": "ул. Шейново №10",
    "worktime1": "09:00 - 18:00",
    "worktime2": "09:00 - 13:00"
  },
  {
    "name": "2900 Гоце Делчев",
    "city": "Гоце Делчев",
    "zipCode": "2900",
    "address": "ул. Драма №35",
    "worktime1": "09:00 - 18:00",
    "worktime2": "09:00 - 13:00"
  },
  {
    "name": "2903 Гоце Делчев Неврокоп",
    "city": "Гоце Делчев",
    "zipCode": "2900",
    "address": "Генерал Ковачев №6",
    "worktime1": "09:00 - 18:00",
    "worktime2": "09:00 - 13:00"
  },
  {
    "name": "88007",
    "city": "Градец",
    "zipCode": "8990",
    "address": "стоянка на мобилната станция - Градец, пред Кметството",
    "worktime1": "10:30 - 10:50",
    "worktime2": "10:10 - 10:20"
  },
  {
    "name": "6280 Гълъбово",
    "city": "Гълъбово",
    "zipCode": "6280",
    "address": "ул. Александър Стамболийски №33",
    "worktime1": "09:00 - 18:00",
    "worktime2": "09:00 - 13:00"
  },
  {
    "name": "7150 Две Могили",
    "city": "Две Могили",
    "zipCode": "7150",
    "address": "кв. Две могили, ул. Шипка №1",
    "worktime1": "09:00 - 10:30; 12:30 - 17:30;",
    "worktime2": "09:00 -13:00"
  },
  {
    "name": "4800 Девин",
    "city": "Девин",
    "zipCode": "4800",
    "address": "Освобождение №23",
    "worktime1": "09:00 - 11:00; 13:00 - 15:00; 16:00 - 18:00",
    "worktime2": "09:00 - 13:00"
  },
  {
    "name": "4801 Девин Васил Левски",
    "city": "Девин",
    "zipCode": "4800",
    "address": "ул. Васил Левски №29",
    "worktime1": "09:00 - 18:00",
    "worktime2": "09:00 - 13:00"
  },
  {
    "name": "9162 Девня",
    "city": "Девня",
    "zipCode": "9160",
    "address": "бул. Съединение, до бензиностанция Лукойл",
    "worktime1": "09:00 - 18:00",
    "worktime2": "09:00 - 13:00"
  },
  {
    "name": "6404 Димитровград Автогара Пазара",
    "city": "Димитровград",
    "zipCode": "6400",
    "address": "кв. Каменец, ул. Димитър Благоев №2",
    "worktime1": "09:00 - 18:00",
    "worktime2": "09:00 - 13:00"
  },
  {
    "name": "6403 Димитровград Естило",
    "city": "Димитровград",
    "zipCode": "6400",
    "address": "ул. Ромен Ролан №9",
    "worktime1": "09:00 - 18:00",
    "worktime2": "09:00 - 13:00"
  },
  {
    "name": "6402 Димитровград тенискортове",
    "city": "Димитровград",
    "zipCode": "6400",
    "address": "ул. Хр.Ботев №1",
    "worktime1": "09:00 - 18:00",
    "worktime2": "09:00 - 13:00"
  },
  {
    "name": "6401 Димитровград Форум",
    "city": "Димитровград",
    "zipCode": "6400",
    "address": "ул. Димитър Благоев №16",
    "worktime1": "09:00 - 18:00",
    "worktime2": "09:00 - 13:00"
  },
  {
    "name": "2777 Добринище",
    "city": "Добринище",
    "zipCode": "2777",
    "address": "ул. Александър Стамболийски №1",
    "worktime1": "09:00 - 18:00",
    "worktime2": "09:00 - 13:00"
  },
  {
    "name": "9311 Добрич",
    "city": "Добрич",
    "zipCode": "9300",
    "address": "кв. Северна промишлена зона, ул. Ангел Стоянов, сграда на Стилстрой",
    "worktime1": "09:00 - 18:30",
    "worktime2": "09:00 - 13:00"
  },
  {
    "name": "9305 Добрич Балик",
    "city": "Добрич",
    "zipCode": "9300",
    "address": "кв. Балик, ул. Христо Ботев №95",
    "worktime1": "09:30 - 17:30",
    "worktime2": "09:00 - 13:00"
  },
  {
    "name": "9307 Добрич Георги Кирков",
    "city": "Добрич",
    "zipCode": "9300",
    "address": "ул. Георги Кирков №26",
    "worktime1": "09:00 - 18:00",
    "worktime2": "09:00 - 13:00"
  },
  {
    "name": "9303 Добрич Добричка епопея",
    "city": "Добрич",
    "zipCode": "9300",
    "address": "ул. Хан Тервел №65",
    "worktime1": "09:00 - 18:00",
    "worktime2": "09:00 - 13:00"
  },
  {
    "name": "9308 Добрич Летен Театър",
    "city": "Добрич",
    "zipCode": "9300",
    "address": "ул. Генерал Колев №28",
    "worktime1": "09:00 - 18:00",
    "worktime2": "09:00 - 13:00"
  },
  {
    "name": "9309 Добрич Родина",
    "city": "Добрич",
    "zipCode": "9300",
    "address": "ул. 25 септември №45",
    "worktime1": "09:00 - 18:00",
    "worktime2": "09:00 - 13:00"
  },
  {
    "name": "9310 Добрич Русия",
    "city": "Добрич",
    "zipCode": "9300",
    "address": "бул. Русия №19",
    "worktime1": "09:00 - 18:00",
    "worktime2": "09:00 - 13:00"
  },
  {
    "name": "5855 Долна Митрополия",
    "city": "Долна Митрополия",
    "zipCode": "5855",
    "address": "ул. Свети Свети Кирил и Методий №41",
    "worktime1": "09:00 - 18:00",
    "worktime2": "09:00 - 13:00"
  },
  {
    "name": "5131 Долна Оряховица",
    "city": "Долна Оряховица",
    "zipCode": "5130",
    "address": "ул. Георги Измирлиев №9",
    "worktime1": "09:30 - 11:30; 14:00 - 15:30; 16:00 - 18:00",
    "worktime2": "09:00 - 11:00; 12:00 - 13:00"
  },
  {
    "name": "5870 Долни Дъбник",
    "city": "Долни Дъбник",
    "zipCode": "5870",
    "address": "ул. Асен Златаров №16",
    "worktime1": "09:00 - 11:30; 13:30 - 15:30; 16:30 - 18:00",
    "worktime2": "09:00 - 11:30; 12:30 - 13:00"
  },
  {
    "name": "4831 Доспат",
    "city": "Доспат",
    "zipCode": "4831",
    "address": "ул. Капитан Петко Войвода №4",
    "worktime1": "09:00 - 18:00",
    "worktime2": "09:00 - 13:00"
  },
  {
    "name": "5370 Дряново",
    "city": "Дряново",
    "zipCode": "5370",
    "address": "ул. Шипка №115",
    "worktime1": "09:30 - 18:00",
    "worktime2": "10:00 - 13:00"
  },
  {
    "name": "7650 Дулово",
    "city": "Дулово",
    "zipCode": "7650",
    "address": "ул. Петко Рачев Славейков №5А",
    "worktime1": "09:00 - 18:00",
    "worktime2": "09:00 - 13:00"
  },
  {
    "name": "2602 Дупница",
    "city": "Дупница",
    "zipCode": "2600",
    "address": "ул. Македония №29, до старата автогара",
    "worktime1": "09:00 - 18:00",
    "worktime2": "09:00 - 13:00"
  },
  {
    "name": "2601 Дупница Патриарха",
    "city": "Дупница",
    "zipCode": "2600",
    "address": "ул. Патриарх Евтимий №11, до Севдината фурна",
    "worktime1": "09:00 - 18:00",
    "worktime2": "09:00 - 13:00"
  },
  {
    "name": "9153",
    "city": "Езерово",
    "zipCode": "9168",
    "address": "стоянка на мобилната станция - Езерово, паркинга на ТЕЦ-а",
    "worktime1": "15:40 - 16:00",
    "worktime2": "11:40 - 12:00"
  },
  {
    "name": "5071 Елена",
    "city": "Елена",
    "zipCode": "5070",
    "address": "ул. Иларион Макариополски №42",
    "worktime1": "09:30 - 11:30; 13:30 - 15:30; 16:30 - 18:00",
    "worktime2": "09:00 - 11:30; 12:30 - 13:00"
  },
  {
    "name": "2100 Елин Пелин",
    "city": "Елин Пелин",
    "zipCode": "2100",
    "address": "ул. Лесновска №64",
    "worktime1": "09:00 - 18:00",
    "worktime2": "09:00 - 13:00"
  },
  {
    "name": "2101 Елин Пелин Площада",
    "city": "Елин Пелин",
    "zipCode": "2100",
    "address": "ул. Елин Пелин №13",
    "worktime1": "09:00 - 18:00",
    "worktime2": "09:00 - 13:00"
  },
  {
    "name": "8700 Елхово",
    "city": "Елхово",
    "zipCode": "8700",
    "address": "ул. Търговска №58",
    "worktime1": "09:00 - 18:00",
    "worktime2": "09:00 - 13:00"
  },
  {
    "name": "2180 Етрополе",
    "city": "Етрополе",
    "zipCode": "2180",
    "address": "бул. Партизански №1",
    "worktime1": "09:00 - 18:00",
    "worktime2": "09:00 - 13:00"
  },
  {
    "name": "88007",
    "city": "Жеравна",
    "zipCode": "8988",
    "address": "стоянка на мобилната станция - Жеравна, пред Пощата",
    "worktime1": "11:40 - 11:50",
    "worktime2": "11:00 - 11:10"
  },
  {
    "name": "2081 Златица",
    "city": "Златица",
    "zipCode": "2080",
    "address": "ул. Св. св. Кирил и Методий №27",
    "worktime1": "09:00 - 18:00",
    "worktime2": "09:00 - 13:00"
  },
  {
    "name": "4980 Златоград",
    "city": "Златоград",
    "zipCode": "4980",
    "address": "ул. Стефан Стамболов №2А",
    "worktime1": "09:00 - 17:00",
    "worktime2": "09:00 - 13:00"
  },
  {
    "name": "9283 Варна",
    "city": "Игнатиево",
    "zipCode": "9143",
    "address": "стоянка на мобилната станция - Игнатиево, Паркинг пред общината",
    "worktime1": "09:50 - 10:20; 16:05 - 16:25",
    "worktime2": "09:10 - 09:15"
  },
  {
    "name": "7400 Исперих",
    "city": "Исперих",
    "zipCode": "7400",
    "address": "ул. Родопи №1",
    "worktime1": "09:00 - 18:00",
    "worktime2": "09:00 - 13:00"
  },
  {
    "name": "2050 Ихтиман",
    "city": "Ихтиман",
    "zipCode": "2050",
    "address": "ул. Цар Освободител №69",
    "worktime1": "09:00 - 18:00",
    "worktime2": "09:00 - 13:00"
  },
  {
    "name": "8210 Каблешково",
    "city": "Каблешково",
    "zipCode": "8210",
    "address": "ул. Св. св. Кирил и Методий №55",
    "worktime1": "09:00 - 18:00",
    "worktime2": "09:00 - 13:00"
  },
  {
    "name": "9650 Каварна",
    "city": "Каварна",
    "zipCode": "9650",
    "address": "бул. България №57, Сити център",
    "worktime1": "09:00 - 17:00",
    "worktime2": "09:00 - 13:00"
  },
  {
    "name": "6100 Казанлък Ден",
    "city": "Казанлък",
    "zipCode": "6100",
    "address": "ж.к. Изток, ул. Алеко Константинов №2, юг",
    "worktime1": "09:00 - 18:00",
    "worktime2": "09:00 - 13:00"
  },
  {
    "name": "6103 Казанлък Манастира",
    "city": "Казанлък",
    "zipCode": "6100",
    "address": "кв. Манастира, ул. Александър Стамболийски №7",
    "worktime1": "09:00 - 18:00",
    "worktime2": "09:00 - 13:00"
  },
  {
    "name": "6101 Казанлък Склад Батенберг",
    "city": "Казанлък",
    "zipCode": "6100",
    "address": "ж.к. Изток, бул. Княз Александър Батенберг №221",
    "worktime1": "09:00 - 18:00",
    "worktime2": "09:00 - 13:00"
  },
  {
    "name": "6104 Казанлък Терес",
    "city": "Казанлък",
    "zipCode": "6100",
    "address": "кв. Васил Левски, ул. Никола Петков №29",
    "worktime1": "09:00 - 18:00",
    "worktime2": "09:00 - 13:00"
  },
  {
    "name": "4370 Калофер",
    "city": "Калофер",
    "zipCode": "4370",
    "address": "ул. 9 септември №10",
    "worktime1": "09:00 - 18:00",
    "worktime2": "09:00 - 13:00"
  },
  {
    "name": "8121 Камено",
    "city": "Камено",
    "zipCode": "8120",
    "address": "Камено, ул. Георги Димитров №19",
    "worktime1": "09:00 - 18:00",
    "worktime2": "09:00 - 13:00"
  },
  {
    "name": "4302 Карлово",
    "city": "Карлово",
    "zipCode": "4300",
    "address": "ул. Юмрукчал №36",
    "worktime1": "09:00 - 18:00",
    "worktime2": "09:00 - 13:00"
  },
  {
    "name": "4301 Карлово Хан Крум",
    "city": "Карлово",
    "zipCode": "4300",
    "address": "ул. Хан Крум №33",
    "worktime1": "09:00 - 18:00",
    "worktime2": "09:00 - 13:00"
  },
  {
    "name": "8402 Карнобат",
    "city": "Карнобат",
    "zipCode": "8400",
    "address": "ул. Хаджи Димитър №2",
    "worktime1": "09:00 - 18:00",
    "worktime2": "09:00 - 13:00"
  },
  {
    "name": "9930 Каспичан",
    "city": "Каспичан",
    "zipCode": "9930",
    "address": "Мадарски конник №107",
    "worktime1": "09:00 - 18:00",
    "worktime2": "09:00 - 13:00"
  },
  {
    "name": "6884 Кирково",
    "city": "Кирково",
    "zipCode": "6884",
    "address": "ул. Димитър Благоев №23",
    "worktime1": "09:00 - 18:00",
    "worktime2": "09:00 - 13:00"
  },
  {
    "name": "5836 Кнежа Общината",
    "city": "Кнежа",
    "zipCode": "5835",
    "address": "ул. Огнян Михайлов №1",
    "worktime1": "09:00 - 18:00",
    "worktime2": "09:00 - 13:00"
  },
  {
    "name": "3320 Козлодуй",
    "city": "Козлодуй",
    "zipCode": "3320",
    "address": "бл.Радецки 2 гараж 4",
    "worktime1": "09:00 - 18:00",
    "worktime2": "09:00 - 13:00"
  },
  {
    "name": "3322 Козлодуй Георги Димитров",
    "city": "Козлодуй",
    "zipCode": "3320",
    "address": "ж.к. 1, бл.6, гаражна клетка 1",
    "worktime1": "09:00 - 18:00",
    "worktime2": "09:00 - 13:00"
  },
  {
    "name": "2031 Костенец",
    "city": "Костенец",
    "zipCode": "2030",
    "address": "ул. Боровец №10",
    "worktime1": "09:00 - 18:00",
    "worktime2": "09:00 - 13:00"
  },
  {
    "name": "2231 Костинброд",
    "city": "Костинброд",
    "zipCode": "2230",
    "address": "ул. Славянска №50",
    "worktime1": "09:00 - 18:00",
    "worktime2": "09:00 - 13:00"
  },
  {
    "name": "8970 Котел",
    "city": "Котел",
    "zipCode": "8970",
    "address": "кв. Изток, Ген Иван Кителски №11",
    "worktime1": "09:00 - 18:00",
    "worktime2": "09:00 - 13:00"
  },
  {
    "name": "2715",
    "city": "Кочериново",
    "zipCode": "2640",
    "address": "стоянка на мобилната станция - Кочериново, паркинг пред Читалището",
    "worktime1": "10:00 - 10:30",
    "worktime2": "09:00 - 09:30"
  },
  {
    "name": "6900 Крумовград",
    "city": "Крумовград",
    "zipCode": "6900",
    "address": "ул. Димитър Благоев №9",
    "worktime1": "09:00 - 18:00",
    "worktime2": "09:00 - 13:00"
  },
  {
    "name": "7300 Кубрат",
    "city": "Кубрат",
    "zipCode": "7300",
    "address": "ул. Оборище №3",
    "worktime1": "09:00 - 18:00",
    "worktime2": "09:00 - 13:00"
  },
  {
    "name": "6605 Кърджали",
    "city": "Кърджали",
    "zipCode": "6600",
    "address": "ул. Металург №2А",
    "worktime1": "09:00 - 18:00",
    "worktime2": "09:00 - 13:00"
  },
  {
    "name": "6601 Кърджали Васил Априлов",
    "city": "Кърджали",
    "zipCode": "6600",
    "address": "ул. Васил Априлов №5",
    "worktime1": "09:00 - 18:00",
    "worktime2": "09:00 - 13:00"
  },
  {
    "name": "6603 Кърджали Веселчане",
    "city": "Кърджали",
    "zipCode": "6600",
    "address": "кв. Веселчане, ул. Първи май №7",
    "worktime1": "09:00 - 18:00",
    "worktime2": "09:00 - 13:00"
  },
  {
    "name": "6602 Кърджали Възрожденци",
    "city": "Кърджали",
    "zipCode": "6600",
    "address": "кв. Възрожденци, бул. Христо Ботев №104, оф. 4",
    "worktime1": "09:00 - 18:00",
    "worktime2": "09:00 - 13:00"
  },
  {
    "name": "2503 Кюстендил Авангард",
    "city": "Кюстендил",
    "zipCode": "2500",
    "address": "ул. Даскал Димитри №31",
    "worktime1": "09:00 - 18:00",
    "worktime2": "09:00 - 13:00"
  },
  {
    "name": "2502 Кюстендил Батенберг",
    "city": "Кюстендил",
    "zipCode": "2500",
    "address": "ул. Александър Батенберг №19",
    "worktime1": "09:00 - 18:00",
    "worktime2": "09:00 - 13:00"
  },
  {
    "name": "2501 Кюстендил Мориц Леви",
    "city": "Кюстендил",
    "zipCode": "2500",
    "address": "ул. Мориц Леви №1",
    "worktime1": "09:00 - 18:00",
    "worktime2": "09:00 - 13:00"
  },
  {
    "name": "5900 Левски",
    "city": "Левски",
    "zipCode": "5900",
    "address": "ул. Малчика №17",
    "worktime1": "09:00 - 18:00",
    "worktime2": "09:00 - 13:00"
  },
  {
    "name": "5506 Ловеч",
    "city": "Ловеч",
    "zipCode": "5500",
    "address": "кв. Младост, бл.302",
    "worktime1": "09:00 - 18:00",
    "worktime2": "09:00 - 13:00"
  },
  {
    "name": "5503 Ловеч Автогара",
    "city": "Ловеч",
    "zipCode": "5500",
    "address": "ул. Полковник Александър Кусев №6",
    "worktime1": "09:00 - 18:00",
    "worktime2": "09:00 - 13:00"
  },
  {
    "name": "5507 Ловеч Вароша",
    "city": "Ловеч",
    "zipCode": "5500",
    "address": "кв. Вароша, ул. Търговска №13",
    "worktime1": "09:00 - 18:00",
    "worktime2": "09:00 - 13:00"
  },
  {
    "name": "5505 Ловеч Пазара",
    "city": "Ловеч",
    "zipCode": "5500",
    "address": "Кооперативен пазар, ул. Ангел Кънчев №18",
    "worktime1": "09:00 - 18:00",
    "worktime2": "09:00 - 13:00"
  },
  {
    "name": "1151 Лозен",
    "city": "Лозен",
    "zipCode": "1151",
    "address": "кв. Горни Лозен, ул. Съединение №127Г",
    "worktime1": "09:00 - 19:00",
    "worktime2": "09:00 - 13:00"
  },
  {
    "name": "3602 Лом Площада",
    "city": "Лом",
    "zipCode": "3600",
    "address": "кв. Лом Площада, ул. Дунавска №10",
    "worktime1": "09:00 - 18:00",
    "worktime2": "09:00 - 13:00"
  },
  {
    "name": "3600 Лом Хан Аспарух",
    "city": "Лом",
    "zipCode": "3600",
    "address": "кв. Лом Хан Аспарух, ул. Хан Аспарух №5",
    "worktime1": "09:00 - 18:00",
    "worktime2": "09:00 - 13:00"
  },
  {
    "name": "5770 Луковит",
    "city": "Луковит",
    "zipCode": "5770",
    "address": "ул. Възраждане №56",
    "worktime1": "09:00 - 18:00",
    "worktime2": "09:00 - 13:00"
  },
  {
    "name": "5143 Лясковец Трети март",
    "city": "Лясковец",
    
    "address": "ул. Трети март №5",
    "worktime1": "09:00 - 18:00",
    "worktime2": "09:00 - 13:00"
  },
  {
    "name": "5141 Лясковец Склад",
    "city": "Лясковец",
    "address": "Лясковец, ул. Оборище №9",
    "worktime1": "20:00 - 07:00",
    "worktime2": "21:00 - 05:00"
  },
  {
    "name": "4901 Мадан",
    "city": "Мадан",
    "zipCode": "4900",
    "address": "ул. Перелик №1",
    "worktime1": "09:00 - 18:00",
    "worktime2": "09:00 - 13:00"
  },
  {
    "name": "7058 Мартен",
    "city": "Мартен",
    "zipCode": "7058",
    "address": "ул. Александър Невски №13",
    "worktime1": "09:00 - 18:00",
    "worktime2": "09:00 - 13:00"
  },
  {
    "name": "3100 Мездра",
    "city": "Мездра",
    "zipCode": "3100",
    "address": "ул. Свети Кирил и Методи №7",
    "worktime1": "09:00 - 18:00",
    "worktime2": "09:00 - 13:00"
  },
  {
    "name": "3330 Мизия",
    "city": "Мизия",
    "zipCode": "3330",
    "address": "ул. Генерал Гурко №1",
    "worktime1": "09:00 - 18:00",
    "worktime2": "09:00 - 13:00"
  },
  {
    "name": "6800 Момчилград",
    "city": "Момчилград",
    "zipCode": "6800",
    "address": "ул. Маказа №3",
    "worktime1": "09:00 - 18:00",
    "worktime2": "09:00 - 13:00"
  },
  {
    "name": "3400 Монтана",
    "city": "Монтана",
    "zipCode": "3400",
    "address": "бул. Трети март №13",
    "worktime1": "09:00 - 18:00",
    "worktime2": "09:00 - 13:00"
  },
  {
    "name": "3405 Монтана Младост 2",
    "city": "Монтана",
    "zipCode": "3400",
    "address": "бул. Монтана №27",
    "worktime1": "09:00 - 18:00",
    "worktime2": "09:00 - 13:00"
  },
  {
    "name": "3404 Монтана Пъстрина",
    "city": "Монтана",
    "zipCode": "3400",
    "address": "ж.к. Пъстрина, бул. Александър Стамболийски №58",
    "worktime1": "09:00 - 18:00",
    "worktime2": "09:00 - 13:00"
  },
  {
    "name": "3402 Монтана Театъра",
    "city": "Монтана",
    "zipCode": "3400",
    "address": "ул. Юлиус Ирасек №5",
    "worktime1": "09:00 - 18:00",
    "worktime2": "09:00 - 13:00"
  },
  {
    "name": "82301 Несебър",
    "city": "Несебър",
    "zipCode": "8230",
    "address": "ул. Еделвайс №41",
    "worktime1": "09:00 - 18:00",
    "worktime2": "09:00 - 13:00"
  },
  {
    "name": "8231 Несебър Склад",
    "city": "Несебър",
    "zipCode": "8230",
    "address": "Несебър, на входа за Несебър и Слънчев Бряг",
    "worktime1": "09:00 - 18:00",
    "worktime2": "09:00 - 13:00"
  },
  {
    "name": "8902 Нова Загора Базара",
    "city": "Нова Загора",
    "zipCode": "8900",
    "address": "ул. Петко Енев №78, (срещу Горското)",
    "worktime1": "09:00 - 18:00",
    "worktime2": "09:00 - 13:00"
  },
  {
    "name": "8900 Нова Загора В.Левски",
    "city": "Нова Загора",
    "zipCode": "8900",
    "address": "ул. Васил Левски №65",
    "worktime1": "09:00 - 18:00",
    "worktime2": "09:00 - 13:00"
  },
  {
    "name": "1280 Нови Искър",
    "city": "Нови Искър",
    "zipCode": "1280",
    "address": "кв. Курило, ул. Търговска №18",
    "worktime1": "09:00 - 18:00",
    "worktime2": "09:00 - 13:00"
  },
  {
    "name": "9900 Нови Пазар",
    "city": "Нови Пазар",
    "zipCode": "9900",
    "address": "ул. Княз Борис №18",
    "worktime1": "09:00 - 18:00",
    "worktime2": "09:00 - 13:00"
  },
  {
    "name": "8252 Обзор",
    "city": "Обзор",
    "zipCode": "8250",
    "address": "ул. Кирил и Методи №4",
    "worktime1": "09:00 - 18:00",
    "worktime2": "09:00 - 13:00"
  },
  {
    "name": "7901 Омуртаг",
    "city": "Омуртаг",
    "zipCode": "7900",
    "address": "ул. Родопи №38",
    "worktime1": "09:30 - 11:30; 13:00 - 15:00; 16:30 - 18:00",
    "worktime2": "09:30 - 11:30; 12:30 - 13:00"
  },
  {
    "name": "3300 Оряхово",
    "city": "Оряхово",
    "zipCode": "3300",
    "address": "ул. 6-ти септември №22",
    "worktime1": "09:00 - 18:00",
    "worktime2": "09:00 - 13:00"
  },
  {
    "name": "5203 Павликени",
    "city": "Павликени",
    "zipCode": "5200",
    "address": "ул. Христо Смирненски №7",
    "worktime1": "09:00 - 18:00",
    "worktime2": "09:00 - 13:00"
  },
  {
    "name": "5202 Павликени Цар Иван Асен",
    "city": "Павликени",
    "zipCode": "5200",
    "address": "ул. Цар Иван Асен II №1",
    "worktime1": "09:00 - 18:00",
    "worktime2": "09:00 - 13:00"
  },
  {
    "name": "4400 Пазарджик",
    "city": "Пазарджик",
    "zipCode": "4400",
    "address": "кв. Лагера, ул. Мильо войвода №24, Индустриална зона",
    "worktime1": "09:00 - 18:00",
    "worktime2": "09:00 - 13:00"
  },
  {
    "name": "4409 Пазарджик Булаир",
    "city": "Пазарджик",
    "zipCode": "4400",
    "address": "кв. Център, ул. Булаир №24",
    "worktime1": "09:00 - 18:00",
    "worktime2": "09:00 - 13:00"
  },
  {
    "name": "4406 Пазарджик Запад",
    "city": "Пазарджик",
    "zipCode": "4400",
    "address": "кв. Запад, бул. Христо Ботев №88, (срещу Максито)",
    "worktime1": "09:00 - 18:00",
    "worktime2": "09:00 - 13:00"
  },
  {
    "name": "4407 Пазарджик Канала",
    "city": "Пазарджик",
    "zipCode": "4400",
    "address": "кв. Запад, бул. Княгиня Мария Луиза №85",
    "worktime1": "09:00 - 18:00",
    "worktime2": "09:00 - 13:00"
  },
  {
    "name": "4401 Пазарджик Механото",
    "city": "Пазарджик",
    "zipCode": "4400",
    "address": "кв. Запад, ул. Тодор Каблешков №10",
    "worktime1": "09:00 - 18:00",
    "worktime2": "09:00 - 13:00"
  },
  {
    "name": "4408 Пазарджик Пазара",
    "city": "Пазарджик",
    "zipCode": "4400",
    "address": "кв. Център, ул. Цар Симеон №1",
    "worktime1": "09:00 - 18:00",
    "worktime2": "09:00 - 13:00"
  },
  {
    "name": "4500 Панагюрище",
    "city": "Панагюрище",
    "zipCode": "4500",
    "address": "ул. Георги Бенковски №25",
    "worktime1": "09:00 - 18:00",
    "worktime2": "09:00 - 13:00"
  },
  {
    "name": "4501 Панагюрище Сити Център",
    "city": "Панагюрище",
    "zipCode": "4500",
    "address": "пл. 20-ти април №1, Общински пазар",
    "worktime1": "09:00 - 18:00",
    "worktime2": "09:00 - 13:00"
  },
  {
    "name": "2306 Перник Даскалово",
    "city": "Перник",
    "zipCode": "2300",
    "address": "ул. Петър Пенчев №12",
    "worktime1": "09:00 - 18:00",
    "worktime2": "09:00 - 13:00"
  },
  {
    "name": "2302 Перник Изток",
    "city": "Перник",
    "zipCode": "2300",
    "address": "ул. Клемент Готвалд №2",
    "worktime1": "09:00 - 18:00",
    "worktime2": "09:00 - 13:00"
  },
  {
    "name": "2301 Перник Пазара",
    "city": "Перник",
    "zipCode": "2300",
    "address": "ул. Розова долина №3",
    "worktime1": "09:00 - 18:00",
    "worktime2": "09:00 - 13:00"
  },
  {
    "name": "2305 Перник Пашов",
    "city": "Перник",
    "zipCode": "2300",
    "address": "ул. Свети Свети Кирил и Методий №59, бл.59",
    "worktime1": "09:00 - 18:00",
    "worktime2": "09:00 - 13:00"
  },
  {
    "name": "2853 Петрич Ален мак",
    "city": "Петрич",
    "zipCode": "2850",
    "address": "Вардар №2",
    "worktime1": "09:00 - 18:00",
    "worktime2": "09:00 - 13:00"
  },
  {
    "name": "2850 Петрич Монопола",
    "city": "Петрич",
    "zipCode": "2850",
    "address": "ул. кап. Никола Парапанов №18А",
    "worktime1": "09:00 - 18:00",
    "worktime2": "09:00 - 13:00"
  },
  {
    "name": "2852 Петрич Промишлена зона",
    "city": "Петрич",
    "zipCode": "2850",
    "address": "кв. Промишлена зона, ул. Места №18",
    "worktime1": "09:00 - 18:00",
    "worktime2": "09:00 - 13:00"
  },
  {
    "name": "4552 Пещера България",
    "city": "Пещера",
    "zipCode": "4550",
    "address": "ул. Георги Кьосеиванов №52",
    "worktime1": "09:00 - 18:00",
    "worktime2": "09:00 - 13:00"
  },
  {
    "name": "4551 Пещера Изгрев",
    "city": "Пещера",
    "zipCode": "4550",
    "address": "ул. Петър Цикалов №15",
    "worktime1": "09:00 - 18:00",
    "worktime2": "09:00 - 13:00"
  },
  {
    "name": "2071 Пирдоп",
    "city": "Пирдоп",
    "zipCode": "2070",
    "address": "бул. Цар Освободител №57, бл.56 вх.Б",
    "worktime1": "09:00 - 18:00",
    "worktime2": "09:00 - 13:00"
  },
  {
    "name": "5803 Плевен",
    "city": "Плевен",
    "zipCode": "5800",
    "address": "Източна Индустриална Зона, ул. Кара Колю №5А, Малкото кръгово колело до завод Мизия",
    "worktime1": "09:00 - 19:00",
    "worktime2": "09:00 - 13:00"
  },
  {
    "name": "5806 Плевен Васил Левски",
    "city": "Плевен",
    "zipCode": "5800",
    "address": "ул. Васил Левски №74",
    "worktime1": "09:00 - 18:00",
    "worktime2": "09:00 - 13:00"
  },
  {
    "name": "5811 Плевен Възраждане",
    "city": "Плевен",
    "zipCode": "5800",
    "address": "пл. Възраждане №1",
    "worktime1": "09:00 - 18:00",
    "worktime2": "09:00 - 13:00"
  },
  {
    "name": "5810 Плевен Дружба",
    "city": "Плевен",
    "zipCode": "5800",
    "address": "ж.к. Дружба, ул. България №4",
    "worktime1": "09:00 - 18:00",
    "worktime2": "09:00 - 13:00"
  },
  {
    "name": "5814 Плевен Метро",
    "city": "Плевен",
    "zipCode": "5800",
    "address": "ул. Метро №11",
    "worktime1": "09:00 - 18:00",
    "worktime2": "09:00 - 13:00"
  },
  {
    "name": "5807 Плевен Неофит Рилски",
    "city": "Плевен",
    "zipCode": "5800",
    "address": "ул. Неофит Рилски №33",
    "worktime1": "09:00 - 18:00",
    "worktime2": "09:00 - 13:00"
  },
  {
    "name": "5800 Плевен РЦ",
    "city": "Плевен",
    "zipCode": "5800",
    "address": "ул. Кара Колю №5А",
    "worktime1": "09:00 - 18:00",
    "worktime2": "09:00 - 13:00"
  },
  {
    "name": "5812 Плевен Сан Стефано",
    "city": "Плевен",
    "zipCode": "5800",
    "address": "ул. Сан Стефано №29",
    "worktime1": "09:00 - 18:00",
    "worktime2": "09:00 - 13:00"
  },
  {
    "name": "5813 Плевен Сторгозия",
    "city": "Плевен",
    "zipCode": "5800",
    "address": "ж.к. Сторгозия, зад 39 блок",
    "worktime1": "09:00 - 18:00",
    "worktime2": "09:00 - 13:00"
  },
  {
    "name": "5802 Плевен Хаджи Димитър",
    "city": "Плевен",
    "zipCode": "5800",
    "address": "ул. Хаджи Димитър №42",
    "worktime1": "09:00 - 18:00",
    "worktime2": "09:00 - 13:00"
  },
  {
    "name": "5808 Плевен Христо Ботев",
    "city": "Плевен",
    "zipCode": "5800",
    "address": "бул. Христо Ботев №94",
    "worktime1": "09:00 - 18:00",
    "worktime2": "09:00 - 13:00"
  },
  {
    "name": "4044 Пловдив",
    "city": "Пловдив",
    "zipCode": "4000",
    "address": "Район Южен, ул. Кукленско Шосе №12",
    "worktime1": "09:00 - 19:30",
    "worktime2": "09:00 - 15:00"
  },
  {
    "name": "4028 Пловдив Автогара Родопи",
    "city": "Пловдив",
    "zipCode": "4000",
    "address": "кв. Автогара Родопи, ул. Калиакра №7А",
    "worktime1": "09:00 - 18:00",
    "worktime2": "09:00 - 13:00"
  },
  {
    "name": "4015 Пловдив Арчарица",
    "city": "Пловдив",
    "zipCode": "4000",
    "address": "Район Централен, ул. Арчарица №1",
    "worktime1": "09:00 - 19:00",
    "worktime2": "09:00 - 13:00"
  },
  {
    "name": "4002 Пловдив Беласица",
    "city": "Пловдив",
    "zipCode": "4000",
    "address": "Район Централен, ул. Беласица №49",
    "worktime1": "09:00 - 18:00",
    "worktime2": "09:00 - 13:00"
  },
  {
    "name": "4040 Пловдив Брезовско шосе",
    "city": "Пловдив",
    "zipCode": "4000",
    "address": "ул. Брезовско шосе №145А, под хотел Филипополис",
    "worktime1": "09:00 - 18:00",
    "worktime2": "09:00 - 13:00"
  },
  {
    "name": "4032 Пловдив Васил Левски",
    "city": "Пловдив",
    "zipCode": "4000",
    "address": "Район Северен, бул. Васил Левски №214, “Карловско шосе”",
    "worktime1": "09:00 - 18:00",
    "worktime2": "09:00 - 13:00"
  },
  {
    "name": "4009 Пловдив ВИП",
    "city": "Пловдив",
    "zipCode": "4000",
    "address": "Район Централен, ул. Хан Тервел №15",
    "worktime1": "09:00 - 18:00",
    "worktime2": "09:00 - 13:00"
  },
  {
    "name": "\"4005 Пловдив Гербера, кв.Тракия\"",
    "city": "Пловдив",
    "zipCode": "4000",
    "address": "ж.к. Тракия, ул. Димитър Ризов №1, бл.194",
    "worktime1": "09:00 - 18:00",
    "worktime2": "09:00 - 13:00"
  },
  {
    "name": "4046 Пловдив Дунав",
    "city": "Пловдив",
    "zipCode": "4000",
    "address": "кв. Захарна фабрика, ул. Йоан Екзарх №17",
    "worktime1": "09:00 - 18:00",
    "worktime2": "09:00 - 13:00"
  },
  {
    "name": "4045 Пловдив ЖП Гара",
    "city": "Пловдив",
    "zipCode": "4000",
    "address": "бул. Христо Ботев №7",
    "worktime1": "09:00 - 18:30",
    "worktime2": "09:00 - 13:00"
  },
  {
    "name": "4026 Пловдив Изгрев",
    "city": "Пловдив",
    "zipCode": "4000",
    "address": "ж.к. Изгрев, ул. Острец №12",
    "worktime1": "09:00 - 19:00",
    "worktime2": "09:00 - 13:00"
  },
  {
    "name": "4048 Пловдив Каменица",
    "city": "Пловдив",
    "zipCode": "4000",
    "address": "кв. Каменица, Район Източен, ул. Лев Толстой №8",
    "worktime1": "09:00 - 18:30",
    "worktime2": "09:00 - 13:00"
  },
  {
    "name": "4010 Пловдив Капана",
    "city": "Пловдив",
    "zipCode": "4000",
    "address": "кв. Капана, Район Централен, ул. Георги Бенковски №36, вход откъм ул.Алцеко",
    "worktime1": "09:00 - 18:00",
    "worktime2": "09:00 - 13:00"
  },
  {
    "name": "4039 Пловдив Кемера",
    "city": "Пловдив",
    "zipCode": "4000",
    "address": "кв. Столипиново, ул. Кемера №1",
    "worktime1": "09:00 - 19:00",
    "worktime2": "09:00 - 13:00"
  },
  {
    "name": "4013 Пловдив Кичук Париж",
    "city": "Пловдив",
    "zipCode": "4000",
    "address": "кв. Кичук Париж, ул. Таврия №9",
    "worktime1": "09:00 - 19:00",
    "worktime2": "09:00 - 13:00"
  },
  {
    "name": "4006 Пловдив Коматево",
    "city": "Пловдив",
    "zipCode": "4000",
    "address": "кв. Коматево, ул. Коматевско шосе №193",
    "worktime1": "09:00 - 18:00",
    "worktime2": "09:00 - 13:00"
  },
  {
    "name": "4003 Пловдив Кършиака",
    "city": "Пловдив",
    "zipCode": "4000",
    "address": "кв. Кършиака, ул. Средец №38",
    "worktime1": "09:00 - 18:30",
    "worktime2": "09:00 - 13:00"
  },
  {
    "name": "4031 Пловдив Мараша",
    "city": "Пловдив",
    "zipCode": "4000",
    "address": "кв. Мараша, ул. Иван Радославов №6",
    "worktime1": "09:00 - 18:00",
    "worktime2": "09:00 - 13:00"
  },
  {
    "name": "4014 Пловдив Марица",
    "city": "Пловдив",
    "zipCode": "4000",
    "address": "кв. Мараша, бул. Марица №54",
    "worktime1": "09:00 - 18:30",
    "worktime2": "09:00 - 13:00"
  },
  {
    "name": "4023 Пловдив Матевски",
    "city": "Пловдив",
    "zipCode": "4000",
    "address": "ж.к. Тракия, ул. Съединение №13",
    "worktime1": "09:00 - 18:00",
    "worktime2": "09:00 - 13:00"
  },
  {
    "name": "4043 Пловдив Митницата",
    "city": "Пловдив",
    "zipCode": "4000",
    "address": "Район Южен, ул. Кукленско Шосе, в автокомплекс Лем Инвест",
    "worktime1": "09:00 - 18:00",
    "worktime2": "09:00 - 13:00"
  },
  {
    "name": "4035 Пловдив Младежка",
    "city": "Пловдив",
    "zipCode": "4000",
    "address": "кв. Мараша, ул. Младежка №37",
    "worktime1": "09:00 - 18:30",
    "worktime2": "09:00 - 13:00"
  },
  {
    "name": "4027 Пловдив Мортагон",
    "city": "Пловдив",
    "zipCode": "4000",
    "address": "Район Централен, ул. Мортагон №5",
    "worktime1": "09:00 - 18:00",
    "worktime2": "09:00 - 13:00"
  },
  {
    "name": "4047 Пловдив Орфей",
    "city": "Пловдив",
    "zipCode": "4000",
    "address": "ул. Орфей №24",
    "worktime1": "09:00 - 18:00",
    "worktime2": "09:00 - 13:00"
  },
  {
    "name": "4029 Пловдив Панаира",
    "city": "Пловдив",
    "zipCode": "4000",
    "address": "кв. Гагарин, бул. България №4, в двора на к-с ОРИ Билдинг, м-н Б-2",
    "worktime1": "09:00 - 18:00",
    "worktime2": "09:00 - 13:00"
  },
  {
    "name": "4037 Пловдив Прослав",
    "city": "Пловдив",
    "zipCode": "4000",
    "address": "кв. Прослав, ул. Елин Пелин №30",
    "worktime1": "09:00 - 18:30",
    "worktime2": "09:00 - 13:00"
  },
  {
    "name": "4034 Пловдив Руски",
    "city": "Пловдив",
    "zipCode": "4000",
    "address": "Район Централен, ул. Драган Цанков №47",
    "worktime1": "09:00 - 18:30",
    "worktime2": "09:00 - 13:00"
  },
  {
    "name": "4019 Пловдив Свобода",
    "city": "Пловдив",
    "zipCode": "4000",
    "address": "Район Централен, ул. Тунджа №10",
    "worktime1": "09:00 - 18:00",
    "worktime2": "09:00 - 13:00"
  },
  {
    "name": "4024 Пловдив Север",
    "city": "Пловдив",
    "zipCode": "4000",
    "address": "Район Северен, ул. Георги Бенев №3",
    "worktime1": "09:00 - 18:00",
    "worktime2": "09:00 - 13:00"
  },
  {
    "name": "4038 Пловдив Скобелева майка",
    "city": "Пловдив",
    "zipCode": "4000",
    "address": "кв. Скобелева майка, ул. Георги Цариградски №6",
    "worktime1": "09:00 - 19:00",
    "worktime2": "09:00 - 13:00"
  },
  {
    "name": "4016 Пловдив Смирненски",
    "city": "Пловдив",
    "zipCode": "4000",
    "address": "ж.к. Христо Смирненски, бул. Пещерско шосе №107",
    "worktime1": "09:00 - 18:00",
    "worktime2": "09:00 - 13:00"
  },
  {
    "name": "4022 Пловдив Сточна гара",
    "city": "Пловдив",
    "zipCode": "4000",
    "address": "ул. Авксентий Велешки №60, Сточна гара",
    "worktime1": "09:00 - 18:00",
    "worktime2": "09:00 - 13:00"
  },
  {
    "name": "4042 Пловдив Събота Пазар",
    "city": "Пловдив",
    "zipCode": "4000",
    "address": "ул. Даме Груев №11",
    "worktime1": "09:00 - 18:00",
    "worktime2": "09:00 - 13:00"
  },
  {
    "name": "4041 Пловдив Съдийски",
    "city": "Пловдив",
    "zipCode": "4000",
    "address": "кв. Съдийски, ул. Георги Груев №6",
    "worktime1": "09:00 - 18:00",
    "worktime2": "09:00 - 13:00"
  },
  {
    "name": "4004 Пловдив Тепето",
    "city": "Пловдив",
    "zipCode": "4000",
    "address": "Район Централен, бул. Пещерско шосе №28А",
    "worktime1": "09:00 - 18:30",
    "worktime2": "09:00 - 13:00"
  },
  {
    "name": "4007 Пловдив Тракия",
    "city": "Пловдив",
    "zipCode": "4000",
    "address": "ж.к. Тракия, бл.45",
    "worktime1": "09:00 - 18:00",
    "worktime2": "09:00 - 13:00"
  },
  {
    "name": "4036 Пловдив Търговска зона",
    "city": "Пловдив",
    "zipCode": "4000",
    "address": "Район Северен, ул. Брезовско шосе №4",
    "worktime1": "09:00 - 18:00",
    "worktime2": "09:00 - 13:00"
  },
  {
    "name": "4018 Пловдив Христо Ботев",
    "city": "Пловдив",
    "zipCode": "4000",
    "address": "кв. Христо Ботев, ул. Константин Геров №6",
    "worktime1": "09:00 - 18:00",
    "worktime2": "09:00 - 13:00"
  },
  {
    "name": "4033 Пловдив Южен",
    "city": "Пловдив",
    "zipCode": "4000",
    "address": "Район Южен, бул. Александър Стамболийски №35",
    "worktime1": "09:00 - 18:00",
    "worktime2": "09:00 - 13:00"
  },
  {
    "name": "5181 Полски Тръмбеш",
    "city": "Полски Тръмбеш",
    "zipCode": "5180",
    "address": "кв. Полски тръмбеш, ул. Търговска №32",
    "worktime1": "09:30 - 11:30; 12:30 - 15:30",
    "worktime2": "09:30 - 11:00; 12:00 - 13:00"
  },
  {
    "name": "8202 Поморие",
    "city": "Поморие",
    "zipCode": "8200",
    "address": "ул. Княз Борис І №96А",
    "worktime1": "00:00 - 18:00",
    "worktime2": "09:00 - 13:00"
  },
  {
    "name": "7800 Попово",
    "city": "Попово",
    "zipCode": "7800",
    "address": "бул. България №117",
    "worktime1": "09:00 - 18:00",
    "worktime2": "09:00 - 13:00"
  },
  {
    "name": "2161 Правец",
    "city": "Правец",
    "zipCode": "2161",
    "address": "ж.к. Север, ул. Димитър Грънчаров №23",
    "worktime1": "09:00 - 18:00",
    "worktime2": "09:00 - 13:00"
  },
  {
    "name": "8290 Приморско",
    "city": "Приморско",
    "zipCode": "8180",
    "address": "ул. Ропотамо №47",
    "worktime1": "09:00 - 18:00",
    "worktime2": "09:00 - 13:00"
  },
  {
    "name": "9202 Провадия",
    "city": "Провадия",
    "zipCode": "9200",
    "address": "ул. Генерал Манзей №1",
    "worktime1": "09:00 - 18:00",
    "worktime2": "09:00 - 13:00"
  },
  {
    "name": "4270 Първомай",
    "city": "Първомай",
    "zipCode": "4270",
    "address": "ул. Димитър Благоев №3",
    "worktime1": "09:00 - 18:00",
    "worktime2": "09:00 - 13:00"
  },
  {
    "name": "8221 Равда",
    "city": "Равда",
    "zipCode": "8238",
    "address": "ул. Околовръстен път, складова база Деметра",
    "worktime1": "09:00 - 18:00",
    "worktime2": "09:00 - 13:00"
  },
  {
    "name": "6261 Раднево",
    "city": "Раднево",
    "zipCode": "6260",
    "address": "ул. Здравец №10",
    "worktime1": "09:00 - 18:00",
    "worktime2": "09:00 - 13:00"
  },
  {
    "name": "2400 Радомир",
    "city": "Радомир",
    "zipCode": "2400",
    "address": "ул. Райко Даскалов №26",
    "worktime1": "09:00 - 18:00",
    "worktime2": "09:00 - 13:00"
  },
  {
    "name": "7203 Разград Автогара",
    "city": "Разград",
    "zipCode": "7200",
    "address": "ул. връх Св. Никола №2, бивш магазин Росстел",
    "worktime1": "09:00 - 18:30",
    "worktime2": "09:00 - 13:00"
  },
  {
    "name": "7201 Разград Бели Лом",
    "city": "Разград",
    "zipCode": "7200",
    "address": "ул. Осъм №30, блока зад БИЛЛА",
    "worktime1": "09:00 - 18:00",
    "worktime2": "09:00 - 13:00"
  },
  {
    "name": "7204 Разград Орел",
    "city": "Разград",
    "zipCode": "7200",
    "address": "ж.к. Орел, ул. Ивайло №3, до Супермаркет 1",
    "worktime1": "09:00 - 18:00",
    "worktime2": "09:00 - 13:00"
  },
  {
    "name": "2760 Разлог",
    "city": "Разлог",
    "zipCode": "2760",
    "address": "ул. Бяла река №4 Б",
    "worktime1": "09:00 - 18:00",
    "worktime2": "09:00 - 13:00"
  },
  {
    "name": "4152 Раковски",
    "city": "Раковски",
    "zipCode": "4150",
    "address": "бул. Георги Сава Раковски №167",
    "worktime1": "09:00 - 18:00",
    "worktime2": "09:00 - 13:00"
  },
  {
    "name": "2715",
    "city": "Рила",
    "zipCode": "2630",
    "address": "стоянка на мобилната станция - Рила, паркинг пред Общината",
    "worktime1": "12:00 - 12:30",
    "worktime2": "10:30 - 11:00"
  },
  {
    "name": "4960 Рудозем",
    "city": "Рудозем",
    "zipCode": "4960",
    "address": "Васил Левски №6, ап.2",
    "worktime1": "09:00 - 18:00",
    "worktime2": "09:00 - 13:00"
  },
  {
    "name": "7029 Русе",
    "city": "Русе",
    "zipCode": "7000",
    "address": "кв. Източна Промишлена Зона, бул. Тутракан №44Б",
    "worktime1": "08:30 - 19:00",
    "worktime2": "08:30 - 13:00"
  },
  {
    "name": "7010 Русе Бизнес Парк",
    "city": "Русе",
    "zipCode": "7000",
    "address": "ж.к. Здравец Изток, бул. Липник №123",
    "worktime1": "09:00 - 18:30",
    "worktime2": "09:00 - 13:00"
  },
  {
    "name": "7006 Русе Борисова Видин",
    "city": "Русе",
    "zipCode": "7000",
    "address": "ж.к. ЦЮР, ул. Рила №44",
    "worktime1": "09:00 - 18:00",
    "worktime2": "09:00 - 13:00"
  },
  {
    "name": "7027 Русе Буда Хаус",
    "city": "Русе",
    "zipCode": "7000",
    "address": "Централна зона, ул. Добруджа №4",
    "worktime1": "09:00 - 19:00",
    "worktime2": "09:00 - 13:00"
  },
  {
    "name": "7009 Русе Волов",
    "city": "Русе",
    "zipCode": "7000",
    "address": "кв. Дружба 1, бул. Христо Ботев №1",
    "worktime1": "09:00 - 18:30",
    "worktime2": "09:00 - 13:00"
  },
  {
    "name": "7019 Русе Възраждане",
    "city": "Русе",
    "zipCode": "7000",
    "address": "кв. Възраждане, ул. Плиска №52",
    "worktime1": "09:00 - 19:00",
    "worktime2": "09:00 - 13:00"
  },
  {
    "name": "7028 Русе Градски площад",
    "city": "Русе",
    "zipCode": "7000",
    "address": "Централна зона, ул. Асен Златаров №20",
    "worktime1": "09:00 - 19:00",
    "worktime2": "09:00 - 13:00"
  },
  {
    "name": "7024 Русе Дружба 3",
    "city": "Русе",
    "zipCode": "7000",
    "address": "кв. Дружба 3, ул. Никола Вапцаров №22, бл.9, партер",
    "worktime1": "09:00 - 18:00",
    "worktime2": "09:00 - 13:00"
  },
  {
    "name": "7015 Русе Западна зона",
    "city": "Русе",
    "zipCode": "7000",
    "address": "кв. Западна промишлена зона, бул. Трети март, сграда Зита",
    "worktime1": "09:00 - 18:30",
    "worktime2": "09:00 - 13:00"
  },
  {
    "name": "7008 Русе Здравец",
    "city": "Русе",
    "zipCode": "7000",
    "address": "ж.к. Здравец, ул. Захари Стоянов №16",
    "worktime1": "09:00 - 18:00",
    "worktime2": "09:00 - 13:00"
  },
  {
    "name": "7022 Русе Кръговото",
    "city": "Русе",
    "zipCode": "7000",
    "address": "Пазара, ул. Люляк №11",
    "worktime1": "09:00 - 18:00",
    "worktime2": "09:00 - 13:00"
  },
  {
    "name": "7005 Русе Локомотив",
    "city": "Русе",
    "zipCode": "7000",
    "address": "Локомотив, ул. Плиска №91",
    "worktime1": "09:00 - 18:00",
    "worktime2": "09:00 - 13:00"
  },
  {
    "name": "7013 Русе Николаевска",
    "city": "Русе",
    "zipCode": "7000",
    "address": "ж.к. ЦЮР, ул. Николаевска №109",
    "worktime1": "09:00 - 19:00",
    "worktime2": "09:00 - 13:00"
  },
  {
    "name": "7023 Русе Родина",
    "city": "Русе",
    "zipCode": "7000",
    "address": "кв. Родина, ул. Чипровци №27",
    "worktime1": "09:00 - 19:00",
    "worktime2": "09:00 - 13:00"
  },
  {
    "name": "7000 Русе РЦ Населено място",
    "city": "Русе",
    "zipCode": "7000",
    "address": "кв. Източна Промишлена Зона, бул. Тутракан №11",
    "worktime1": "03:00 - 23:30",
    "worktime2": "03:00 - 13:00"
  },
  {
    "name": "7026 Русе Солун",
    "city": "Русе",
    "zipCode": "7000",
    "address": "кв. Възраждане, ул. Солун №25",
    "worktime1": "09:00 - 18:00",
    "worktime2": "09:00 - 13:00"
  },
  {
    "name": "7021 Русе Търговска",
    "city": "Русе",
    "zipCode": "7000",
    "address": "ж.к. Здравец Изток, ул. Акад. Михаил Арнаудов №2",
    "worktime1": "09:00 - 18:00",
    "worktime2": "09:00 - 13:00"
  },
  {
    "name": "7020 Русе Халите",
    "city": "Русе",
    "zipCode": "7000",
    "address": "Централна зона, ул. Хан Омуртаг №1",
    "worktime1": "09:00 - 18:30",
    "worktime2": "09:00 - 13:00"
  },
  {
    "name": "7025 Русе Чародейка",
    "city": "Русе",
    "zipCode": "7000",
    "address": "жк. Чародейка Г-юг, бл.213",
    "worktime1": "09:00 - 18:00",
    "worktime2": "09:00 - 13:00"
  },
  {
    "name": "2000 Самоков",
    "city": "Самоков",
    "zipCode": "2000",
    "address": "ул. Македония №70",
    "worktime1": "09:00 - 18:00",
    "worktime2": "09:00 - 13:00"
  },
  {
    "name": "2001 Самоков Площада",
    "city": "Самоков",
    "zipCode": "2000",
    "address": "ул. Цар Борис 3, бл.18",
    "worktime1": "09:00 - 18:00",
    "worktime2": "09:00 - 13:00"
  },
  {
    "name": "2800 Сандански",
    "city": "Сандански",
    "zipCode": "2800",
    "address": "ул. Георги Бенковски №15",
    "worktime1": "09:00 - 18:00",
    "worktime2": "09:00 - 13:00"
  },
  {
    "name": "2801 Сандански Стамболов",
    "city": "Сандански",
    "zipCode": "2800",
    "address": "ул. Стефан Стамболов №6",
    "worktime1": "09:00 - 18:00",
    "worktime2": "09:00 - 13:00"
  },
  {
    "name": "2902",
    "city": "Сатовча",
    "zipCode": "2950",
    "address": "стоянка на мобилната станция - Сатовча, ул. Тодор Шопов 37",
    "worktime1": "10:30 - 10:50",
    "worktime2": "10:30 - 10:40"
  },
  {
    "name": "8256 Свети влас",
    "city": "Свети Влас",
    "zipCode": "8256",
    "address": "кв. Център, ул. Чайка №31",
    "worktime1": "09:00 - 18:00",
    "worktime2": "09:00 - 13:00"
  },
  {
    "name": "6500 Свиленград",
    "city": "Свиленград",
    "zipCode": "6500",
    "address": "Райко Даскалов №1",
    "worktime1": "09:00 - 18:00",
    "worktime2": "09:00 - 13:00"
  },
  {
    "name": "6501 Свиленград Младост",
    "city": "Свиленград",
    "zipCode": "6500",
    "address": "Язовирска №1",
    "worktime1": "09:00 - 18:00",
    "worktime2": "09:00 - 13:00"
  },
  {
    "name": "5250 Свищов",
    "city": "Свищов",
    "zipCode": "5250",
    "address": "ул. Ал. Стамболийски №3",
    "worktime1": "09:00 - 18:00",
    "worktime2": "09:00 - 13:00"
  },
  {
    "name": "5252 Свищов Велешана",
    "city": "Свищов",
    "zipCode": "5250",
    "address": "ул. Опълченска №16",
    "worktime1": "09:00 - 18:00",
    "worktime2": "09:00 - 13:00"
  },
  {
    "name": "5251 Свищов Студентски град",
    "city": "Свищов",
    "zipCode": "5250",
    "address": "ул. Трети март №93",
    "worktime1": "09:00 - 17:30",
    "worktime2": "09:00 - 12:30"
  },
  {
    "name": "2260 Своге",
    "city": "Своге",
    "zipCode": "2260",
    "address": "бул. Цар Симеон №45, Автогара",
    "worktime1": "09:00 - 18:00",
    "worktime2": "09:00 - 13:00"
  },
  {
    "name": "5402 Севлиево",
    "city": "Севлиево",
    "zipCode": "5400",
    "address": "ул. Никола Петков №41А, срещу Лидл",
    "worktime1": "09:00 - 18:00",
    "worktime2": "09:00 - 13:00"
  },
  {
    "name": "5401 Севлиево Княз Борис",
    "city": "Севлиево",
    "zipCode": "5400",
    "address": "ул. Свети Княз Борис I №18",
    "worktime1": "09:00 - 18:00",
    "worktime2": "09:00 - 13:00"
  },
  {
    "name": "4491 Септември",
    "city": "Септември",
    "zipCode": "4490",
    "address": "кв. ЖП гара, ул. Любен Каравелов №13",
    "worktime1": "09:00 - 18:00",
    "worktime2": "09:00 - 13:00"
  },
  {
    "name": "7502 Силистра Аврора ОМВ",
    "city": "Силистра",
    "zipCode": "7500",
    "address": "ул. Черно море №7",
    "worktime1": "09:00 - 18:00",
    "worktime2": "09:00 - 13:00"
  },
  {
    "name": "7505 Силистра Дап",
    "city": "Силистра",
    "zipCode": "7500",
    "address": "ул. Тулча №8",
    "worktime1": "09:00 - 18:00",
    "worktime2": "09:00 - 13:00"
  },
  {
    "name": "7504 Силистра Македония",
    "city": "Силистра",
    "zipCode": "7500",
    "address": "бул. Македония №152",
    "worktime1": "09:00 - 18:00",
    "worktime2": "09:00 - 13:00"
  },
  {
    "name": "6492 Симеоновград",
    "city": "Симеоновград",
    "zipCode": "6490",
    "address": "ул. Търговска №8",
    "worktime1": "09:00 - 18:00",
    "worktime2": "09:00 - 13:00"
  },
  {
    "name": "8801 Сливен Аксаков",
    "city": "Сливен",
    "zipCode": "8800",
    "address": "ул. Генерал Драгомиров №10, К-с Париж вътрешна страна",
    "worktime1": "09:00 - 18:00",
    "worktime2": "09:00 - 13:00"
  },
  {
    "name": "8802 Сливен Бр. Миладинови",
    "city": "Сливен",
    "zipCode": "8800",
    "address": "бул. Братя Миладинови №10",
    "worktime1": "09:00 - 18:00",
    "worktime2": "09:00 - 13:00"
  },
  {
    "name": "8807 Сливен Българка",
    "city": "Сливен",
    "zipCode": "8800",
    "address": "комплекс Българка, бл.27, вход от южната страна",
    "worktime1": "09:00 - 18:00",
    "worktime2": "09:00 - 13:00"
  },
  {
    "name": "8806 Сливен Васил Левски",
    "city": "Сливен",
    "zipCode": "8800",
    "address": "пл. Васил Левски №5",
    "worktime1": "09:00 - 18:00",
    "worktime2": "09:00 - 13:00"
  },
  {
    "name": "8804 Сливен Дружба",
    "city": "Сливен",
    "zipCode": "8800",
    "address": "кв. Дружба, ул. Стефан Стамболов №4, обект 8",
    "worktime1": "09:00 - 18:00",
    "worktime2": "09:00 - 13:00"
  },
  {
    "name": "8803 Сливен Клуцохор",
    "city": "Сливен",
    "zipCode": "8800",
    "address": "кв. Клуцохор, ул. Шести септември №49",
    "worktime1": "09:00 - 18:00",
    "worktime2": "09:00 - 13:00"
  },
  {
    "name": "8808 Сливен Панайот Хитов",
    "city": "Сливен",
    "zipCode": "8800",
    "address": "ул. Панайот Хитов №37",
    "worktime1": "09:00 - 18:00",
    "worktime2": "09:00 - 13:00"
  },
  {
    "name": "8800 Сливен Светлина",
    "city": "Сливен",
    "zipCode": "8800",
    "address": "кв. Индустриален, ул. Стефан Караджа №6, 50м навътре от портала",
    "worktime1": "09:00 - 18:00",
    "worktime2": "09:00 - 13:00"
  },
  {
    "name": "2200 Сливница",
    "city": "Сливница",
    "zipCode": "2200",
    "address": "ул. Георги Бенковски №2",
    "worktime1": "09:00 - 18:00",
    "worktime2": "09:00 - 13:00"
  },
  {
    "name": "8242 Слънчев бряг Автогара",
    "city": "Слънчев Бряг",
    "zipCode": "8240",
    "address": "кв. Камелия, до Автогарата",
    "worktime1": "09:00 - 18:00",
    "worktime2": "09:00 - 13:00"
  },
  {
    "name": "8241 Слънчев бряг Вива",
    "city": "Слънчев Бряг",
    "zipCode": "8240",
    "address": "до Поликлиника Вива",
    "worktime1": "09:00 - 18:00",
    "worktime2": "09:00 - 13:00"
  },
  {
    "name": "8243 Слънчев бряг Пасифик",
    "city": "Слънчев Бряг",
    "zipCode": "8240",
    "address": "ул. Първа, срещу дискотека Ориндж",
    "worktime1": "09:00 - 18:00",
    "worktime2": "09:00 - 13:00"
  },
  {
    "name": "4704 Смолян",
    "city": "Смолян",
    "zipCode": "4700",
    "address": "ул. Бузлуджа №7, дълбоко дере",
    "worktime1": "09:00 - 18:00",
    "worktime2": "09:00 - 13:00"
  },
  {
    "name": "4703 Смолян Райково",
    "city": "Смолян",
    "zipCode": "4700",
    "address": "кв. Райково, ул. Деспот Слав №1",
    "worktime1": "09:00 - 18:00",
    "worktime2": "09:00 - 13:00"
  },
  {
    "name": "8130 Созопол Републиканска",
    "city": "Созопол",
    "zipCode": "8130",
    "address": "Созопол, ул. Републиканска №55",
    "worktime1": "09:00 - 18:00",
    "worktime2": "09:00 - 13:00"
  },
  {
    "name": "4330 Сопот",
    "city": "Сопот",
    "zipCode": "4330",
    "address": "Сопот, ул. Ганчо поп Николов №17",
    "worktime1": "09:00 - 18:00",
    "worktime2": "09:00 - 13:00"
  },
  {
    "name": "1127 София",
    "city": "София",
    "zipCode": "1000",
    "address": "жк Хаджи Димитър, ул. Резбарска №11",
    "worktime1": "06:00 - 23:59",
    "worktime2": "09:00 - 16:00"
  },
  {
    "name": "10088 София - Цеко Иванов",
    "city": "София",
    "zipCode": "1000",
    "address": "жк Хаджи Димитър, ул. Резбарска №9",
    "worktime1": "09:00 - 22:00",
    "worktime2": "09:00 - 13:00"
  },
  {
    "name": "1701 София APS",
    "city": "София",
    "zipCode": "1000",
    "address": "кв. Младост 3, ул. Филип Аврамов №3, магазин Кауфланд",
    "worktime1": "00:01 - 23:59",
    "worktime2": "00:01 - 23:59"
  },
  {
    "name": "1703 София APS OMV",
    "city": "София",
    "zipCode": "1000",
    "address": "кв. Младост 1, бул. Цариградско шосе №56, бензиностанция OMV Окръжна болница",
    "worktime1": "00:01 - 23:59",
    "worktime2": "00:01 - 23:59"
  },
  {
    "name": "1107 София Аксаков",
    "city": "София",
    "zipCode": "1000",
    "address": "кв. Оборище, ул. Аксаков №15",
    "worktime1": "09:00 - 19:00",
    "worktime2": "09:00 - 13:00"
  },
  {
    "name": "1102 София Арсеналски",
    "city": "София",
    "zipCode": "1000",
    "address": "жк Лозенец, бул. Арсеналски №7, м-н 1",
    "worktime1": "09:00 - 18:30",
    "worktime2": "09:00 - 13:00"
  },
  {
    "name": "1077 София Бели брези",
    "city": "София",
    "zipCode": "1000",
    "address": "жк Белите брези, ул. Смърч №13",
    "worktime1": "09:00 - 18:00",
    "worktime2": "09:00 - 13:00"
  },
  {
    "name": "1103 София Бели Дунав",
    "city": "София",
    "zipCode": "1000",
    "address": "кв. Надежда 3, бл.330",
    "worktime1": "09:00 - 18:30",
    "worktime2": "09:00 - 13:00"
  },
  {
    "name": "1034 София Бигла",
    "city": "София",
    "zipCode": "1000",
    "address": "жк Лозенец, ул. Бигла №37",
    "worktime1": "09:00 - 19:00",
    "worktime2": "09:00 - 13:00"
  },
  {
    "name": "1003 София Бизнес Парк",
    "city": "София",
    "zipCode": "1000",
    "address": "кв. Младост 4, бл.444 А, партер",
    "worktime1": "09:00 - 20:00",
    "worktime2": "09:00 - 13:00"
  },
  {
    "name": "1083 София Борис Стефанов",
    "city": "София",
    "zipCode": "1000",
    "address": "жк Студентски град, ул. Акад.Борис Стефанов №2",
    "worktime1": "09:00 - 19:30",
    "worktime2": "09:00 - 13:00"
  },
  {
    "name": "1119 София Борово",
    "city": "София",
    "zipCode": "1000",
    "address": "жк Красно село - Борово, бл.227 вх.А, офис 4",
    "worktime1": "09:00 - 18:30",
    "worktime2": "09:00 - 13:00"
  },
  {
    "name": "1129 София Борса Къра",
    "city": "София",
    "zipCode": "1000",
    "address": "кв. Полигона, бул. Проф. Цветан Лазаров №4-8, Борса Къра",
    "worktime1": "09:00 - 18:30",
    "worktime2": "09:00 - 13:00"
  },
  {
    "name": "1120 София БЦ Витоша",
    "city": "София",
    "zipCode": "1000",
    "address": "жк Лозенец, бул. Черни връх №47",
    "worktime1": "09:00 - 19:00",
    "worktime2": "09:00 - 13:00"
  },
  {
    "name": "1070 София Вас метал",
    "city": "София",
    "zipCode": "1000",
    "address": "кв. Враждебна, бул. Ботевградско шосе №276",
    "worktime1": "09:00 - 18:00",
    "worktime2": "09:00 - 13:00"
  },
  {
    "name": "1062 София Военна Рампа",
    "city": "София",
    "zipCode": "1000",
    "address": "кв. Военна рампа, бул. Илиянци №12",
    "worktime1": "09:00 - 19:00",
    "worktime2": "09:00 - 13:00"
  },
  {
    "name": "1032 София Гара искър",
    "city": "София",
    "zipCode": "1000",
    "address": "жп гара Искър, ул. Мюнхен №14",
    "worktime1": "09:00 - 19:00",
    "worktime2": "09:00 - 13:00"
  },
  {
    "name": "1012 София Гладстон",
    "city": "София",
    "zipCode": "1000",
    "address": "Столична община - район Триадица, ул. Уилям Гладстон №9",
    "worktime1": "09:00 - 19:30",
    "worktime2": "09:00 - 13:00"
  },
  {
    "name": "1019 София Горна баня",
    "city": "София",
    "zipCode": "1000",
    "address": "кв. Горна Баня, ул. Инж. Борислав Огойски №1",
    "worktime1": "09:00 - 18:00",
    "worktime2": "09:00 - 13:00"
  },
  {
    "name": "1064 София Горубляне",
    "city": "София",
    "zipCode": "1000",
    "address": "кв. Горубляне, ул. Пионерска №5",
    "worktime1": "09:00 - 18:30",
    "worktime2": "09:00 - 13:00"
  },
  {
    "name": "1044 София Гюешево БЦ Сердика",
    "city": "София",
    "zipCode": "1000",
    "address": "жк Сердика, ул. Гюешево №83",
    "worktime1": "09:00 - 19:00",
    "worktime2": "09:00 - 13:00"
  },
  {
    "name": "1088 София Делийска воденица",
    "city": "София",
    "zipCode": "1000",
    "address": "жк Дружба-2, ул. Делийска воденица №5, срещу блок 314",
    "worktime1": "09:00 - 19:30",
    "worktime2": "09:00 - 13:00"
  },
  {
    "name": "1052 София Дианабад",
    "city": "София",
    "zipCode": "1000",
    "address": "жк Дианабад, ул. Тинтява №27",
    "worktime1": "09:00 - 18:00",
    "worktime2": "09:00 - 13:00"
  },
  {
    "name": "1106 София Драгалевци",
    "city": "София",
    "zipCode": "1000",
    "address": "кв. Драгалевци, бул. Черни връх №189Г",
    "worktime1": "09:00 - 18:30",
    "worktime2": "09:00 - 13:00"
  },
  {
    "name": "1055 София Дружба 1",
    "city": "София",
    "zipCode": "1000",
    "address": "жк Дружба-1, бл.108",
    "worktime1": "09:00 - 18:00",
    "worktime2": "09:00 - 13:00"
  },
  {
    "name": "1116 София Дружба 2",
    "city": "София",
    "zipCode": "1000",
    "address": "кв. Дружба, ул. Илия Бешков №12, до м-н Мания",
    "worktime1": "09:00 - 19:00",
    "worktime2": "09:00 - 13:00"
  },
  {
    "name": "1028 София Емил Марков",
    "city": "София",
    "zipCode": "1000",
    "address": "жк Гоце Делчев, бул. Тодор Каблешков №24, срещу бензиностанция Петрол",
    "worktime1": "09:00 - 19:00",
    "worktime2": "09:00 - 13:00"
  },
  {
    "name": "1113 София Западен парк",
    "city": "София",
    "zipCode": "1000",
    "address": "жк Западен парк, бул. Александър Стамболийски №196",
    "worktime1": "09:00 - 18:30",
    "worktime2": "09:00 - 13:00"
  },
  {
    "name": "1109 София Захари Стоянов",
    "city": "София",
    "zipCode": "1000",
    "address": "жк Люлин-4, бул. Захари Стоянов - кв. Люлин, до блок 403",
    "worktime1": "09:00 - 19:00",
    "worktime2": "09:00 - 13:00"
  },
  {
    "name": "1031 София Иван Вазов",
    "city": "София",
    "zipCode": "1000",
    "address": "жк Иван Вазов, ул. Димитър Манов №21",
    "worktime1": "09:00 - 18:00",
    "worktime2": "09:00 - 13:00"
  },
  {
    "name": "1011 София Изток",
    "city": "София",
    "zipCode": "1000",
    "address": "жк Изток, ул. Николай Хайтов №2, (срещу Интерпред в локалното платно на бул.Драган Цанков от страната на кв.Изток)",
    "worktime1": "09:00 - 19:00",
    "worktime2": "09:00 - 13:00"
  },
  {
    "name": "1013 София Илиянци",
    "city": "София",
    "zipCode": "1000",
    "address": "кв. Илиянци, ул. Петър Панайотов №3",
    "worktime1": "09:00 - 19:00",
    "worktime2": "09:00 - 15:00"
  },
  {
    "name": "1080 София кв.Витоша",
    "city": "София",
    "zipCode": "1000",
    "address": "кв. Витоша, ул. Асен Разцветников №14А",
    "worktime1": "09:00 - 19:00",
    "worktime2": "09:00 - 13:00"
  },
  {
    "name": "1004 София Кемпински",
    "city": "София",
    "zipCode": "1000",
    "address": "жк Лозенец, ул. Капитан Тодор Ночев №28",
    "worktime1": "09:00 - 19:00",
    "worktime2": "09:00 - 13:00"
  },
  {
    "name": "1122 София Княжево",
    "city": "София",
    "zipCode": "1000",
    "address": "кв. Княжево, бул. Цар Борис III №355",
    "worktime1": "09:00 - 18:30",
    "worktime2": "09:00 - 13:00"
  },
  {
    "name": "1049 София Козлодуй",
    "city": "София",
    "zipCode": "1000",
    "address": "Централна жп гара, ул. Козлодуй №23",
    "worktime1": "09:00 - 18:00",
    "worktime2": "09:00 - 13:00"
  },
  {
    "name": "1076 София Константин Величков",
    "city": "София",
    "zipCode": "1000",
    "address": "жк Зона Б-18, бул. Константин Величков №3",
    "worktime1": "09:00 - 19:00",
    "worktime2": "09:00 - 13:00"
  },
  {
    "name": "1118 София Красна поляна",
    "city": "София",
    "zipCode": "1000",
    "address": "жк Красна поляна-3, ул. Колю Фичето, до бл.31Б",
    "worktime1": "09:00 - 18:30",
    "worktime2": "09:00 - 13:00"
  },
  {
    "name": "1005 София Красно село",
    "city": "София",
    "zipCode": "1000",
    "address": "жк Красно село, ул. Царица Елеонора №12",
    "worktime1": "09:00 - 18:00",
    "worktime2": "09:00 - 13:00"
  },
  {
    "name": "1072 София Кръстова вада",
    "city": "София",
    "zipCode": "1000",
    "address": "кв. Кръстова Вада, бул. Черни връх №154",
    "worktime1": "09:00 - 19:00",
    "worktime2": "09:00 - 13:00"
  },
  {
    "name": "1104 София Лагера",
    "city": "София",
    "zipCode": "1000",
    "address": "жк Лагера, ул. Балчик №5",
    "worktime1": "09:00 - 19:00",
    "worktime2": "09:00 - 13:00"
  },
  {
    "name": "1038 София Левски",
    "city": "София",
    "zipCode": "1000",
    "address": "жк Левски-В, бл.10А, м-н 2",
    "worktime1": "09:00 - 18:00",
    "worktime2": "09:00 - 13:00"
  },
  {
    "name": "1087 София Летище",
    "city": "София",
    "zipCode": "1000",
    "address": "Летище, бул. Христофор Колумб №64",
    "worktime1": "09:00 - 19:00",
    "worktime2": "09:00 - 13:00"
  },
  {
    "name": "1123 София Линкълн",
    "city": "София",
    "zipCode": "1000",
    "address": "кв. Овча купел 1, бул. Президент Линкълн №62, срещу блокове 523-524",
    "worktime1": "09:00 - 19:00",
    "worktime2": "09:00 - 13:00"
  },
  {
    "name": "1132 София Лъвов мост",
    "city": "София",
    "zipCode": "1000",
    "address": "кв. Барите, ул. Поп Богомил №38",
    "worktime1": "09:00 - 18:00",
    "worktime2": "09:00 - 13:00"
  },
  {
    "name": "1086 София Любляна",
    "city": "София",
    "zipCode": "1000",
    "address": "кв. Овча купел 1, ул. Любляна №38",
    "worktime1": "09:00 - 18:30",
    "worktime2": "09:00 - 13:00"
  },
  {
    "name": "1015 София Люлин",
    "city": "София",
    "zipCode": "1000",
    "address": "жк Люлин-8, ул. 3011 №5, срещу Булгаргаз",
    "worktime1": "09:00 - 18:30",
    "worktime2": "09:00 - 13:00"
  },
  {
    "name": "1084 София Люлин 1 Европа",
    "city": "София",
    "zipCode": "1000",
    "address": "Люлин, ул.109-кв .Люлин №19",
    "worktime1": "09:00 - 19:30",
    "worktime2": "09:00 - 13:00"
  },
  {
    "name": "1037 София Малашевци",
    "city": "София",
    "zipCode": "1000",
    "address": "кв. Малашевци, ул. Първа Българска армия №82",
    "worktime1": "09:00 - 18:00",
    "worktime2": "09:00 - 13:00"
  },
  {
    "name": "1085 София Манастирски ливади",
    "city": "София",
    "zipCode": "1000",
    "address": "кв. Манастирски ливади, ул. Иван Сусанин №54Б",
    "worktime1": "09:00 - 18:00",
    "worktime2": "09:00 - 13:00"
  },
  {
    "name": "1026 София Младост",
    "city": "София",
    "zipCode": "1000",
    "address": "кв. Младост 3, бл.342 вх.1",
    "worktime1": "09:00 - 19:00",
    "worktime2": "09:00 - 13:00"
  },
  {
    "name": "1056 София Младост 1",
    "city": "София",
    "zipCode": "1000",
    "address": "кв. Младост 1, ул. Йерусалим, бл.54 магазин 6",
    "worktime1": "09:00 - 18:30",
    "worktime2": "09:00 - 13:00"
  },
  {
    "name": "1079 София Младост 1А Пътеките",
    "city": "София",
    "zipCode": "1000",
    "address": "кв. Младост 1А, бл.508",
    "worktime1": "09:00 - 19:00",
    "worktime2": "09:00 - 13:00"
  },
  {
    "name": "1069 София Младост 2",
    "city": "София",
    "zipCode": "1000",
    "address": "кв. Младост 2, бл.205Б",
    "worktime1": "09:00 - 19:00",
    "worktime2": "09:00 - 13:00"
  },
  {
    "name": "1117 София Младост Окръжна болница",
    "city": "София",
    "zipCode": "1000",
    "address": "кв. Младост 1, Търговски комплекс М и С, до пазар Окръжна болница",
    "worktime1": "09:00 - 18:30",
    "worktime2": "09:00 - 13:00"
  },
  {
    "name": "1110 София Модерно предградие",
    "city": "София",
    "zipCode": "1000",
    "address": "кв. Модерно Предградие, ул. Методи Македонски №20",
    "worktime1": "09:00 - 18:00",
    "worktime2": "09:00 - 13:00"
  },
  {
    "name": "1078 София Момина клисура",
    "city": "София",
    "zipCode": "1000",
    "address": "жк Сухата река, бул. Ботевградско шосе №,, бл.4",
    "worktime1": "09:00 - 18:00",
    "worktime2": "09:00 - 13:00"
  },
  {
    "name": "1027 София Моста Чавдар",
    "city": "София",
    "zipCode": "1000",
    "address": "кв. Оборище, пл. Чавдар",
    "worktime1": "09:00 - 19:30",
    "worktime2": "09:00 - 13:00"
  },
  {
    "name": "1105 София Мусагеница",
    "city": "София",
    "zipCode": "1000",
    "address": "кв. Мусагеница, бл.110",
    "worktime1": "09:00 - 18:00",
    "worktime2": "09:00 - 13:00"
  },
  {
    "name": "1108 София Нюман",
    "city": "София",
    "zipCode": "1000",
    "address": "кв. Военна рампа, ул. Проф. Иван Георгов №3",
    "worktime1": "09:00 - 18:00",
    "worktime2": "09:00 - 13:00"
  },
  {
    "name": "1058 София Обеля 1",
    "city": "София",
    "zipCode": "1000",
    "address": "кв. Обеля 1, бл.121",
    "worktime1": "09:00 - 18:30",
    "worktime2": "09:00 - 13:00"
  },
  {
    "name": "1082 София Обеля 2",
    "city": "София",
    "zipCode": "1000",
    "address": "кв. Обеля 2, бул. Ломско шосе №207",
    "worktime1": "09:00 - 18:30",
    "worktime2": "09:00 - 13:00"
  },
  {
    "name": "1051 София Овча купел",
    "city": "София",
    "zipCode": "1000",
    "address": "кв. Овча купел 1, ул. Маестро Кънев №78, до НБУ",
    "worktime1": "09:00 - 18:00",
    "worktime2": "09:00 - 13:00"
  },
  {
    "name": "1071 София Овча купел 2",
    "city": "София",
    "zipCode": "1000",
    "address": "кв. Овча купел 2, бул. Президент Линкълн №116, (Базар Ситиком)",
    "worktime1": "09:00 - 18:00",
    "worktime2": "09:00 - 13:00"
  },
  {
    "name": "1024 София Одрин",
    "city": "София",
    "zipCode": "1000",
    "address": "кв. Възраждане, ул. Одрин №156",
    "worktime1": "09:00 - 19:00",
    "worktime2": "09:00 - 13:00"
  },
  {
    "name": "1075 София Опълченска",
    "city": "София",
    "zipCode": "1000",
    "address": "жк Банишора, ул. Опълченска, бл.54",
    "worktime1": "09:00 - 18:30",
    "worktime2": "09:00 - 13:00"
  },
  {
    "name": "1030 София Орион",
    "city": "София",
    "zipCode": "1000",
    "address": "жк Люлин-10, бул. Д-р Петър Дертлиев, бл.142",
    "worktime1": "09:00 - 20:00",
    "worktime2": "09:00 - 13:00"
  },
  {
    "name": "1068 София Орлов мост",
    "city": "София",
    "zipCode": "1000",
    "address": "жк Яворов, ул. Виктор Юго №7",
    "worktime1": "09:00 - 19:00",
    "worktime2": "09:00 - 13:00"
  },
  {
    "name": "1041 София Павлово",
    "city": "София",
    "zipCode": "1000",
    "address": "кв. Павлово, ул. Мадара №1",
    "worktime1": "09:00 - 18:00",
    "worktime2": "09:00 - 13:00"
  },
  {
    "name": "1081 София Паметника Левски",
    "city": "София",
    "zipCode": "1000",
    "address": "кв. Оборище, ул. Панайот Волов №1",
    "worktime1": "09:00 - 18:00",
    "worktime2": "09:00 - 13:00"
  },
  {
    "name": "1090 София Плиска",
    "city": "София",
    "zipCode": "1000",
    "address": "жк Гео Милев, бул. Цариградско шосе №89, бл.112",
    "worktime1": "09:00 - 19:00",
    "worktime2": "09:00 - 13:00"
  },
  {
    "name": "1121 София Раковски",
    "city": "София",
    "zipCode": "1000",
    "address": "кв. Оборище, ул. Георги Сава Раковски №79-81",
    "worktime1": "09:00 - 19:00",
    "worktime2": "09:00 - 13:00"
  },
  {
    "name": "1115 София Редута",
    "city": "София",
    "zipCode": "1000",
    "address": "кв. Редута, ул. Блага Димитрова №23",
    "worktime1": "09:00 - 19:00",
    "worktime2": "09:00 - 13:00"
  },
  {
    "name": "1042 София Римска стена",
    "city": "София",
    "zipCode": "1000",
    "address": "жк Лозенец, ул. Неразделни №1",
    "worktime1": "09:00 - 18:00",
    "worktime2": "09:00 - 13:00"
  },
  {
    "name": "1061 София Руски паметник",
    "city": "София",
    "zipCode": "1000",
    "address": "кв. Руски паметник, ул. Люлин планина №17",
    "worktime1": "09:00 - 18:00",
    "worktime2": "09:00 - 13:00"
  },
  {
    "name": "1000 София РЦ Населено място",
    "city": "София",
    "zipCode": "1000",
    "address": "жк Хаджи Димитър, ул. Резбарска №9",
    "worktime1": "06:00 - 24:00",
    "worktime2": "09:00 - 16:00"
  },
  {
    "name": "1200 София РЦ Орион",
    "city": "София",
    "zipCode": "1000",
    "address": "жк Люлин-1, ул. 3019 №1",
    "worktime1": "09:00 - 19:00",
    "worktime2": "09:00 - 13:00"
  },
  {
    "name": "1035 София Света Троица",
    "city": "София",
    "zipCode": "1000",
    "address": "жк Света Троица № бл. 304",
    "worktime1": "09:00 - 18:00",
    "worktime2": "09:00 - 13:00"
  },
  {
    "name": "1073 София Свобода",
    "city": "София",
    "zipCode": "1000",
    "address": "жк Свобода, ул. Ген.Никола Жеков №22, ул.Дилянка",
    "worktime1": "09:00 - 19:00",
    "worktime2": "09:00 - 13:00"
  },
  {
    "name": "1065 София Силвър Център Люлин",
    "city": "София",
    "zipCode": "1000",
    "address": "жк Люлин-7, бул. Джавахарлал Неру, бл.769, магазин 2",
    "worktime1": "09:00 - 19:30",
    "worktime2": "09:00 - 13:00"
  },
  {
    "name": "1114 София Слатина",
    "city": "София",
    "zipCode": "1000",
    "address": "кв. Слатина, ул. Иван Димитров - Куклата №15",
    "worktime1": "09:00 - 19:00",
    "worktime2": "09:00 - 13:00"
  },
  {
    "name": "1016 София Стамболийски",
    "city": "София",
    "zipCode": "1000",
    "address": "кв. Възраждане, ул. Осогово №36",
    "worktime1": "09:00 - 19:00",
    "worktime2": "09:00 - 13:00"
  },
  {
    "name": "1054 София Стрелбище",
    "city": "София",
    "zipCode": "1000",
    "address": "жк Стрелбище, ул. Тулча №37",
    "worktime1": "09:00 - 18:00",
    "worktime2": "09:00 - 13:00"
  },
  {
    "name": "1009 София Студентски град",
    "city": "София",
    "zipCode": "1000",
    "address": "жк Студентски град, ул. Проф. Атанас Иширков - кв. Студентски град №11",
    "worktime1": "09:00 - 19:30",
    "worktime2": "09:00 - 13:00"
  },
  {
    "name": "1074 София Сухата река",
    "city": "София",
    "zipCode": "1000",
    "address": "жк Сухата река, бул. Владимир Вазов №20, м-н Била",
    "worktime1": "09:00 - 18:00",
    "worktime2": "09:00 - 13:00"
  },
  {
    "name": "1043 София Технически Университет",
    "city": "София",
    "zipCode": "1000",
    "address": "жк Дървеница, ул. Проф. Георги Брадистилов №6",
    "worktime1": "09:00 - 20:00",
    "worktime2": "09:00 - 13:00"
  },
  {
    "name": "1007 София Универсиада",
    "city": "София",
    "zipCode": "1000",
    "address": "жк Гео Милев, ул. Борис Христов №18-20",
    "worktime1": "09:00 - 19:00",
    "worktime2": "09:00 - 13:00"
  },
  {
    "name": "1025 София Фондови жилища",
    "city": "София",
    "zipCode": "1000",
    "address": "кв. Фондови жилища, бл.203",
    "worktime1": "09:00 - 19:00",
    "worktime2": "09:00 - 13:00"
  },
  {
    "name": "1089 София Хиподрума",
    "city": "София",
    "zipCode": "1000",
    "address": "жк Хиподрума, ул. Хан Пресиян №6-8",
    "worktime1": "09:00 - 18:00",
    "worktime2": "09:00 - 13:00"
  },
  {
    "name": "1060 София Цар Самуил",
    "city": "София",
    "zipCode": "1000",
    "address": "кв. Възраждане, ул. Цар Самуил №72",
    "worktime1": "09:00 - 18:00",
    "worktime2": "09:00 - 13:00"
  },
  {
    "name": "1001 София Цар Симеон",
    "city": "София",
    "zipCode": "1000",
    "address": "кв. Възраждане, ул. Цар Симеон №133",
    "worktime1": "09:00 - 19:00",
    "worktime2": "09:00 - 13:00"
  },
  {
    "name": "1125 София Цариградски комплекс",
    "city": "София",
    "zipCode": "1000",
    "address": "жк Дружба-2, бл.284, до вход Ж",
    "worktime1": "09:00 - 18:30",
    "worktime2": "09:00 - 13:00"
  },
  {
    "name": "1022 София Цариградско шосе",
    "city": "София",
    "zipCode": "1000",
    "address": "кв. Младост 1, бул. Цариградско шосе №129, 7-ми км до АТМ център",
    "worktime1": "09:00 - 19:30",
    "worktime2": "09:00 - 13:00"
  },
  {
    "name": "1126 София Черковна",
    "city": "София",
    "zipCode": "1000",
    "address": "кв. Подуяне, ул. Черковна №60",
    "worktime1": "09:00 - 19:00",
    "worktime2": "09:00 - 13:00"
  },
  {
    "name": "4211 Стамболийски",
    "city": "Стамболийски",
    "zipCode": "4210",
    "address": "кв. 57, бул. Търговски №1",
    "worktime1": "09:00 - 18:00",
    "worktime2": "09:00 - 13:00"
  },
  {
    "name": "6013 Стара Загора ЖПГара",
    "city": "Стара Загора",
    "zipCode": "6000",
    "address": "ул. Герасим Папазчев №8",
    "worktime1": "09:00 - 19:00",
    "worktime2": "09:00 - 13:00"
  },
  {
    "name": "6007 Стара Загора Индустриален",
    "city": "Стара Загора",
    "zipCode": "6000",
    "address": "кв. Индустриален, ул. Индустриална",
    "worktime1": "09:00 - 18:00",
    "worktime2": "09:00 - 13:00"
  },
  {
    "name": "6010 Стара Загора кв.Железник",
    "city": "Стара Загора",
    "zipCode": "6000",
    "address": "кв. Железник, бул. Цар Симеон Велики, до м-н Зорa",
    "worktime1": "09:00 - 18:00",
    "worktime2": "09:00 - 13:00"
  },
  {
    "name": "6014 Стара Загора Мартинели",
    "city": "Стара Загора",
    "zipCode": "6000",
    "address": "кв. Индустриален, зад магазин Мартинели",
    "worktime1": "09:00 - 18:00",
    "worktime2": "09:00 - 13:00"
  },
  {
    "name": "6016 Стара Загора Мототехника",
    "city": "Стара Загора",
    "zipCode": "6000",
    "address": "бул. Цар Симеон Велики №161",
    "worktime1": "09:00 - 19:00",
    "worktime2": "09:00 - 13:00"
  },
  {
    "name": "6012 Стара Загора Площад Берое",
    "city": "Стара Загора",
    "zipCode": "6000",
    "address": "ул. Свещеник Георги Клисаров №15",
    "worktime1": "09:00 - 18:00",
    "worktime2": "09:00 - 13:00"
  },
  {
    "name": "6011 Стара Загора Раковски",
    "city": "Стара Загора",
    "zipCode": "6000",
    "address": "ул. Георги Сава Раковски №130",
    "worktime1": "09:00 - 18:00",
    "worktime2": "09:00 - 13:00"
  },
  {
    "name": "6015 Стара Загора Три Чучурa",
    "city": "Стара Загора",
    "zipCode": "6000",
    "address": "кв. Три Чучура, ул. Никола Икономов №5",
    "worktime1": "09:00 - 18:00",
    "worktime2": "09:00 - 13:00"
  },
  {
    "name": "6001 Стара Загора Хаджи Д.Асенов",
    "city": "Стара Загора",
    "zipCode": "6000",
    "address": "ул. Хаджи Димитър Асенов №95",
    "worktime1": "09:00 - 18:00",
    "worktime2": "09:00 - 13:00"
  },
  {
    "name": "6003 Стара Загора Цар Иван Шишман",
    "city": "Стара Загора",
    "zipCode": "6000",
    "address": "ул. Цар Иван Шишман №42",
    "worktime1": "09:00 - 18:00",
    "worktime2": "09:00 - 13:00"
  },
  {
    "name": "5152 Стражица",
    "city": "Стражица",
    "zipCode": "5150",
    "address": "Стражица, ул. Михал Друмев №1",
    "worktime1": "09:00 - 18:00",
    "worktime2": "09:00 - 13:00"
  },
  {
    "name": "9283 Варна",
    "city": "Суворово",
    "zipCode": "9170",
    "address": "стоянка на мобилната станция - гр. Суворово, паркинга пред общината",
    "worktime1": "11:00 - 11:45; 15:15 - 15:35",
    "worktime2": "10:30 - 10:40"
  },
  {
    "name": "8890 Твърдица",
    "city": "Твърдица",
    "zipCode": "8890",
    "address": "Твърдица, ул. Хан Аспарух №13",
    "worktime1": "09:00 - 13:00; 14:00 - 18:00",
    "worktime2": "09:00 - 13:00"
  },
  {
    "name": "9451 Тервел",
    "city": "Тервел",
    "zipCode": "9450",
    "address": "Тервел, ул. Гео Милев №13",
    "worktime1": "09:00 - 11:00; 12:00 - 15:00; 16:00 - 17:00",
    "worktime2": "09:00 - 13:00"
  },
  {
    "name": "5701 Тетевен ВИП",
    "city": "Тетевен",
    "zipCode": "5700",
    "address": "Тетевен, ул. Иван Вазов №93",
    "worktime1": "09:00 - 18:00",
    "worktime2": "09:00 - 13:00"
  },
  {
    "name": "8800 Сливен Светлина",
    "city": "Тича",
    "zipCode": "8980",
    "address": "кв. Индустриален, ул. Стефан Караджа №6, 50м навътре от портала",
    "worktime1": "09:00 - 18:00",
    "worktime2": "09:00 - 13:00"
  },
  {
    "name": "6560 Тополовград",
    "city": "Тополовград",
    "zipCode": "6560",
    "address": "Тополовград, ул. Света Богородица №10",
    "worktime1": "09:00 - 18:00",
    "worktime2": "09:00 - 13:00"
  },
  {
    "name": "5600 Троян",
    "city": "Троян",
    "zipCode": "5600",
    "address": "Троян, ул. Димитър Икономов Димитриката №23, сградата на автогарата",
    "worktime1": "09:00 - 18:00",
    "worktime2": "09:00 - 13:00"
  },
  {
    "name": "5601 Троян Каравелов",
    "city": "Троян",
    "zipCode": "5600",
    "address": "Троян, ул. Кирил и Методий №17, срещу Държавно Горско Стопанство",
    "worktime1": "09:00 - 18:00",
    "worktime2": "09:00 - 13:00"
  },
  {
    "name": "5602 Троян Лъгът",
    "city": "Троян",
    "zipCode": "5600",
    "address": "ж.к. Лъгът №,, бл.19, вх.Б партер",
    "worktime1": "09:00 - 18:00",
    "worktime2": "09:00 - 13:00"
  },
  {
    "name": "4199 Труд",
    "city": "Труд",
    "zipCode": "4199",
    "address": "ул. Янтра №2Б",
    "worktime1": "09:00 - 18:00",
    "worktime2": "09:00 - 13:00"
  },
  {
    "name": "5350 Трявна",
    "city": "Трявна",
    "zipCode": "5350",
    "address": "Трявна, ул. Бачо Киро №9",
    "worktime1": "09:00 - 18:00",
    "worktime2": "09:00 - 13:00"
  },
  {
    "name": "7600 Тутракан",
    "city": "Тутракан",
    "zipCode": "7600",
    "address": "Тутракан, ул. Родина №10",
    "worktime1": "09:00 - 18:00",
    "worktime2": "09:00 - 13:00"
  },
  {
    "name": "7705 Търговище",
    "city": "Търговище",
    "zipCode": "7700",
    "address": "кв. Индустриална зона, бивша Родопа",
    "worktime1": "09:00 - 18:30",
    "worktime2": "09:00 - 13:00"
  },
  {
    "name": "7704 Търговище Запад",
    "city": "Търговище",
    "zipCode": "7700",
    "address": "Търговище, бул. Сюрен №1",
    "worktime1": "09:00 - 18:00",
    "worktime2": "09:00 - 13:00"
  },
  {
    "name": "7703 Търговище Огледалото",
    "city": "Търговище",
    "zipCode": "7700",
    "address": "Търговище, ул. Братя Миладинови №23",
    "worktime1": "09:00 - 18:00",
    "worktime2": "09:00 - 13:00"
  },
  {
    "name": "7701 Търговище Театъра",
    "city": "Търговище",
    "zipCode": "7700",
    "address": "Търговище, ул. Петко Р. Славейков №36",
    "worktime1": "09:00 - 18:00",
    "worktime2": "09:00 - 13:00"
  },
  {
    "name": "6450 Харманли",
    "city": "Харманли",
    "zipCode": "6450",
    "address": "Харманли, ул. Стефан Льондев №1",
    "worktime1": "09:30 - 18:00",
    "worktime2": "09:30 - 13:00"
  },
  {
    "name": "6451 Харманли Пазара",
    "city": "Харманли",
    "zipCode": "6450",
    "address": "кв. Център, ул. Марин Велев №1",
    "worktime1": "09:00 - 18:00",
    "worktime2": "09:00 - 13:00"
  },
  {
    "name": "6308 Хасково",
    "city": "Хасково",
    "zipCode": "6300",
    "address": "Източна индустриална зона, бул. Съединение №66",
    "worktime1": "09:00 - 18:00",
    "worktime2": "09:00 - 13:00"
  },
  {
    "name": "6305 Хасково Kняз Борис",
    "city": "Хасково",
    "zipCode": "6300",
    "address": "Дружба 1, ул. Княз Борис I №3",
    "worktime1": "09:00 - 18:00",
    "worktime2": "09:00 - 13:00"
  },
  {
    "name": "6301 Хасково XXI -ви век",
    "city": "Хасково",
    "zipCode": "6300",
    "address": "ж.к. Овчарски, ул. Драгоман №42",
    "worktime1": "09:00 - 18:00",
    "worktime2": "09:00 - 13:00"
  },
  {
    "name": "6306 Хасково Веспрем",
    "city": "Хасково",
    "zipCode": "6300",
    "address": "кв. Орфей, кв. Веспрем, бл.22, сграда Козирог",
    "worktime1": "09:00 - 18:00",
    "worktime2": "09:00 - 13:00"
  },
  {
    "name": "6302 Хасково кв.Бадема",
    "city": "Хасково",
    "zipCode": "6300",
    "address": "кв. Бадема, сградата на Ел Тим",
    "worktime1": "09:00 - 18:00",
    "worktime2": "09:00 - 13:00"
  },
  {
    "name": "6307 Хасково кв.Хисаря",
    "city": "Хасково",
    "zipCode": "6300",
    "address": "кв. Хисаря, ул. Лом №1",
    "worktime1": "09:00 - 18:00",
    "worktime2": "09:00 - 13:00"
  },
  {
    "name": "6303 Хасково Орфей",
    "city": "Хасково",
    "zipCode": "6300",
    "address": "кв. Орфей, ул. Димитровградско шосе, Сервиз Peugeot",
    "worktime1": "09:00 - 18:00",
    "worktime2": "09:00 - 13:00"
  },
  {
    "name": "6304 Хасково Цар Освободител",
    "city": "Хасково",
    "zipCode": "6300",
    "address": "кв. Училищни, ул. Цар Освободител №41",
    "worktime1": "09:00 - 18:00",
    "worktime2": "09:00 - 13:00"
  },
  {
    "name": "4180 Хисаря",
    "city": "Хисаря",
    "zipCode": "4180",
    "address": "Хисаря, ул. Гео Милев №6",
    "worktime1": "09:00 - 18:00",
    "worktime2": "09:00 - 13:00"
  },
  {
    "name": "8260 Царево",
    "city": "Царево",
    "zipCode": "8260",
    "address": "Царево, ул. Михаил Герджиков №30",
    "worktime1": "09:00 - 18:00",
    "worktime2": "09:00 - 13:00"
  },
  {
    "name": "4854 Чепеларе",
    "city": "Чепеларе",
    "zipCode": "4850",
    "address": "ул. Васил Дечев №13",
    "worktime1": "09:00 - 18:00",
    "worktime2": "09:00 - 13:00"
  },
  {
    "name": "5980 Червен Бряг ЖП Гара",
    "city": "Червен Бряг",
    "zipCode": "5980",
    "address": "кв. Червен бряг, ул. Христо Ботев №2",
    "worktime1": "09:00 - 18:00",
    "worktime2": "09:00 - 13:00"
  },
  {
    "name": "5981 Червен Бряг Общината",
    "city": "Червен Бряг",
    "zipCode": "5980",
    "address": "кв. Червен бряг, ул. Г. С. Раковски №24",
    "worktime1": "09:00 - 18:00",
    "worktime2": "09:00 - 13:00"
  },
  {
    "name": "6203 Чирпан Георги Димитров",
    "city": "Чирпан",
    "zipCode": "6200",
    "address": "ул. Любен Каравелов №24",
    "worktime1": "09:00 - 18:00",
    "worktime2": "09:00 - 13:00"
  },
  {
    "name": "6202 Чирпан Площада",
    "city": "Чирпан",
    "zipCode": "6200",
    "address": "ул. Янко Иванов №14",
    "worktime1": "09:00 - 18:00",
    "worktime2": "09:00 - 13:00"
  },
  {
    "name": "9700 Шумен",
    "city": "Шумен",
    "zipCode": "9700",
    "address": "бул. Мадара №1",
    "worktime1": "09:00 - 18:00",
    "worktime2": "09:00 - 13:00"
  },
  {
    "name": "9708 Шумен Дивдядово",
    "city": "Шумен",
    "zipCode": "9700",
    "address": "кв. Дивдядово, бул. Велики Преслав №136",
    "worktime1": "09:00 - 18:00",
    "worktime2": "09:00 - 13:00"
  },
  {
    "name": "9707 Шумен Осми март",
    "city": "Шумен",
    "zipCode": "9700",
    "address": "ул. Петра №22",
    "worktime1": "09:00 - 18:00",
    "worktime2": "09:00 - 13:00"
  },
  {
    "name": "9705 Шумен Тракия",
    "city": "Шумен",
    "zipCode": "9700",
    "address": "Тракия, бул. Симеон Велики №25",
    "worktime1": "09:00 - 18:00",
    "worktime2": "09:00 - 13:00"
  },
  {
    "name": "9703 Шумен Турбо",
    "city": "Шумен",
    "zipCode": "9700",
    "address": "бул. Симеон Велики №74В, Автоцентър турбо",
    "worktime1": "09:00 - 18:00",
    "worktime2": "09:00 - 13:00"
  },
  {
    "name": "9701 Шумен Цар Освободител",
    "city": "Шумен",
    "zipCode": "9700",
    "address": "ул. Цар Освободител №114",
    "worktime1": "09:00 - 18:00",
    "worktime2": "09:00 - 13:00"
  },
  {
    "name": "7078 Щръклево",
    "city": "Щръклево",
    "zipCode": "7078",
    "address": "ж.к. Щръклево, ул. Централна №35А",
    "worktime1": "09:00 - 18:00",
    "worktime2": "09:00 - 13:00"
  },
  {
    "name": "88007",
    "city": "Ябланово",
    "zipCode": "8989",
    "address": "стоянка на мобилната станция - Ябланово, ул. Никола Вапцаров (пред сладкарницата)",
    "worktime1": "15:15 - 15:35",
    "worktime2": "13:10 - 13:20"
  },
  {
    "name": "8604 Ямбол",
    "city": "Ямбол",
    "zipCode": "8600",
    "address": "пл. Боровец, бул. Димитър Благоев №20, до пожарната",
    "worktime1": "09:00 - 18:00",
    "worktime2": "09:00 - 13:00"
  },
  {
    "name": "8602 Ямбол Автогара Батак",
    "city": "Ямбол",
    "zipCode": "8600",
    "address": "гара гара Ямбол, ул. Батак №10",
    "worktime1": "09:00 - 18:00",
    "worktime2": "09:00 - 13:00"
  },
  {
    "name": "8606 Ямбол Граф Игнатиев",
    "city": "Ямбол",
    "zipCode": "8600",
    "address": "ж.к. Граф Игнатиев, до бл.78",
    "worktime1": "09:00 - 18:00",
    "worktime2": "09:00 - 13:00"
  },
  {
    "name": "8601 Ямбол Искър",
    "city": "Ямбол",
    "zipCode": "8600",
    "address": "гара гара Ямбол, ул. Искър №1А",
    "worktime1": "09:00 - 18:00",
    "worktime2": "09:00 - 13:00"
  },
  {
    "name": "8605 Ямбол РЦ",
    "city": "Ямбол",
    "zipCode": "8600",
    "address": "ж.к. Индустриален, Индустриална №1, малката търговия",
    "worktime1": "09:00 - 18:00",
    "worktime2": "09:00 - 13:00"
  },
  {
    "name": "8603 Ямбол Трите вятъра",
    "city": "Ямбол",
    "zipCode": "8600",
    "address": "гара гара Ямбол, ул. Дружба №1",
    "worktime1": "09:00 - 18:00",
    "worktime2": "09:00 - 13:00"
  }
]